station_id;id2;loc1;loc2;id3;since;unknown;lat;lon;state;state_name;loc_type1;loc_type2;neighboring;street;hnumber;zip_code;mindate
7;DEBB007;Elsterwerda;Elsterwerda;ELBA;1992-09-01;NA;13.5268;51.4627;BB;Brandenburg;vorstädtisches Gebiet;vorstädtisch;Hintergrund;Lauchhammerstr.;;04910;2016-01-01
21;DEBB021;Potsdam-Zentrum;Potsdam;PDBA;2009-04-15;NA;13.0599;52.4014;BB;Brandenburg;städtisches Gebiet;städtisch;Hintergrund;Am Bassinplatz;;14467;2016-01-01
28;DEBB029;Schwedt (Oder);Schwedt/Oder;SWHE;1993-04-06;NA;14.2851;53.0643;BB;Brandenburg;vorstädtisches Gebiet;vorstädtisch;Industrie;Helbigstr.;;16303;2016-01-01
31;DEBB032;Eisenhüttenstadt;Eisenhüttenstadt;EHST;1993-04-20;NA;14.6382;52.1463;BB;Brandenburg;vorstädtisches Gebiet;vorstädtisch;Industrie;Karl-Marx-Str.;35;15890;2016-01-01
42;DEBB044;Cottbus, Bahnhofstr.;Cottbus;COBA;2012-09-25;NA;14.3280;51.7566;BB;Brandenburg;städtisches Gebiet;städtisch;Verkehr;Bahnhofstr.;55;03046;2016-01-01
43;DEBB045;Frankfurt (Oder), Leipziger Str.;Frankfurt (Oder);FFLS;1995-08-01;NA;14.5386;52.3373;BB;Brandenburg;städtisches Gebiet;städtisch;Verkehr;Leipziger Str.;;15232;2016-01-01
46;DEBB048;Neuruppin;Neuruppin;NEHA;1998-06-11;NA;12.8095;52.9319;BB;Brandenburg;vorstädtisches Gebiet;vorstädtisch;Hintergrund;Gerhard-Hauptmann-Str.;18/1;16816;2016-01-01
47;DEBB049;Brandenburg, Neuendorfer Str.;Brandenburg;BRNE;2013-10-15;NA;12.5484;52.4093;BB;Brandenburg;städtisches Gebiet;städtisch;Verkehr;Neuendorfer Str.;;14770;2016-01-01
51;DEBB053;Hasenholz (Buckow);Buckow;HAHO;2000-11-21;NA;14.0153;52.5638;BB;Brandenburg;ländlich regional;ländlich;Hintergrund;Ortsteil Hasenholz;;15377;2016-01-01
52;DEBB054;Potsdam, Zeppelinstr.;Potsdam;;2001-03-07;NA;13.0375;52.3939;BB;Brandenburg;städtisches Gebiet;städtisch;Verkehr;Zeppelinstr.;30;14471;2016-01-01
53;DEBB055;Brandenburg a.d. Havel;Brandenburg;;2001-10-01;NA;12.5523;52.4204;BB;Brandenburg;vorstädtisches Gebiet;vorstädtisch;Hintergrund;Lilli-Friesicke-Str.;;14770;2016-01-01
58;DEBB060;Eberswalde, Breite Straße;Eberswalde;;2015-01-09;NA;13.8222;52.8325;BB;Brandenburg;städtisches Gebiet;städtisch;Verkehr;Breite Str.;24;16225;2016-01-01
61;DEBB063;Wittenberge;Wittenberge;;2002-12-03;NA;11.7385;52.9988;BB;Brandenburg;vorstädtisches Gebiet;vorstädtisch;Hintergrund;Dr.-Wilhelm-Külz-Str.;;19322;2016-01-01
62;DEBB064;Cottbus;Cottbus;COGA;2002-12-10;NA;14.3345;51.7468;BB;Brandenburg;städtisches Gebiet;städtisch;Hintergrund;Gartenstr.;;03050;2016-01-01
63;DEBB065;Lütte (Belzig);Amt Belzig, Gemeinde Lütte;;2003-02-14;NA;12.5614;52.1942;BB;Brandenburg;ländlich regional;ländlich;Hintergrund;Die hohe Heide/Feldstraße;;14806;2016-01-01
64;DEBB066;Spreewald;Neu Zauche;SPNZ;2003-04-17;NA;14.0571;51.8976;BB;Brandenburg;ländlich regional;ländlich;Hintergrund;(Am Nordumfluter);;15913;2016-01-01
65;DEBB067;Nauen;Nauen;;2003-08-11;NA;12.8852;52.6086;BB;Brandenburg;vorstädtisches Gebiet;vorstädtisch;Hintergrund;Kreuztaler Str.;3;14641;2016-01-01
66;DEBB068;Bernau, Lohmühlenstr.;Bernau;;2003-01-09;NA;13.5823;52.6777;BB;Brandenburg;städtisches Gebiet;städtisch;Verkehr;Lohmühlenstr.;42;16321;2016-01-01
71;DEBB073;Potsdam, Großbeerenstr.;Potsdam-Babelsberg;;2006-06-08;NA;13.0946;52.3889;BB;Brandenburg;städtisches Gebiet;städtisch;Verkehr;Großbeerenstr.;31;14482;2016-01-01
73;DEBB075;Potsdam, Groß Glienicke;Potsdam;;2007-04-27;NA;13.1237;52.4842;BB;Brandenburg;vorstädtisches Gebiet;vorstädtisch;Hintergrund;Seeburger Chaussee;2;14476;2016-01-01
81;DEBB083;Spremberg;Spremberg;;2009-05-06;NA;14.3764;51.5645;BB;Brandenburg;vorstädtisches Gebiet;vorstädtisch;Hintergrund;Lustgartenstr.;4a;03130;2016-01-01
84;DEBB086;Blankenfelde-Mahlow;Mahlow;;2010-05-25;NA;13.4243;52.3497;BB;Brandenburg;vorstädtisches Gebiet;vorstädtisch;Hintergrund;Schulstr.;1;15831;2016-01-01
90;DEBB092;Frankfurt (Oder);Frankfurt (Oder);FFIS;2013-10-01;NA;14.5260;52.3347;BB;Brandenburg;vorstädtisches Gebiet;vorstädtisch;Hintergrund;Im Sande;;15234;2016-01-01
107;DEBB109;Luckenwalde;Luckenwalde;;2019-01-01;NA;13.1749;52.0897;BB;Brandenburg;städtisches Gebiet;städtisch;Hintergrund;Breite Str.;53;14943;2019-01-01
121;DEBE010;Berlin Wedding;Berlin;;1984-11-01;NA;13.3493;52.5430;BE;Berlin;städtisches Gebiet;städtisch;Hintergrund;Amrumer Str./Limburger Str.;;13353;2016-01-01
129;DEBE018;Berlin Schöneberg;Berlin;;1986-11-01;NA;13.3488;52.4858;BE;Berlin;städtisches Gebiet;städtisch;Hintergrund;Belziger Str.;52;10823;2016-01-01
138;DEBE027;Berlin Marienfelde;Berlin;;1989-04-01;NA;13.3681;52.3984;BE;Berlin;ländlich stadtnah;ländlich;Hintergrund;Schichauweg (UBA-Gelände);66;12307;2016-01-01
143;DEBE032;Berlin Grunewald (3.5 m);Berlin;;1986-10-01;NA;13.2251;52.4732;BE;Berlin;ländlich stadtnah;ländlich;Hintergrund;Jagen 91 (Waldstation, H=3.5 m);;14193;2016-01-01
145;DEBE034;Berlin Neukölln;Berlin;;1986-03-01;NA;13.4308;52.4895;BE;Berlin;städtisches Gebiet;städtisch;Hintergrund;Nansenstr.;10;12047;2016-01-01
158;DEBE051;Berlin Buch;Berlin;MC077;2017-07-24;NA;13.4831;52.6442;BE;Berlin;vorstädtisches Gebiet;vorstädtisch;Hintergrund;Hobrechtsfelder Chaussee;110-113;13125;2016-01-01
163;DEBE056;Berlin Friedrichshagen;Berlin;;1994-02-01;NA;13.6471;52.4477;BE;Berlin;ländlich stadtnah;ländlich;Hintergrund;Müggelseedamm (Wasserwerk);308;12587;2016-01-01
168;DEBE061;Berlin Schildhornstraße;Berlin;;1994-11-01;NA;13.3183;52.4636;BE;Berlin;städtisches Gebiet;städtisch;Verkehr;Schildhornstr.;76;12163;2016-01-01
169;DEBE062;Berlin Frohnau (3.5 m);Berlin;;1996-02-01;NA;13.2961;52.6533;BE;Berlin;ländlich stadtnah;ländlich;Hintergrund;Jägersteig (Funkturm 3.5 m);1;13465;2016-01-01
170;DEBE063;Berlin Silbersteinstraße;Berlin;;1996-05-01;NA;13.4417;52.4675;BE;Berlin;städtisches Gebiet;städtisch;Verkehr;Silbersteinstr.;1;12051;2016-01-01
171;DEBE064;Berlin Karl-Marx-Straße;Berlin;;1993-08-01;NA;13.4340;52.4817;BE;Berlin;städtisches Gebiet;städtisch;Verkehr;Karl-Marx-Str.;76;12043;2016-01-01
172;DEBE065;Berlin Frankfurter Allee;Berlin;;1993-09-01;NA;13.4699;52.5141;BE;Berlin;städtisches Gebiet;städtisch;Verkehr;Frankfurter Allee;86b;10247;2016-01-01
173;DEBE066;Berlin Karlshorst;Berlin;;1999-07-01;NA;13.5295;52.4853;BE;Berlin;städtisches Gebiet;städtisch;Hintergrund;Rheingoldstr./Königswinterstr.;;10318;2016-01-01
174;DEBE067;Berlin Hardenbergplatz;Berlin;;2004-01-01;NA;13.3330;52.5066;BE;Berlin;städtisches Gebiet;städtisch;Verkehr;Hardenbergplatz;1;10623;2016-01-01
175;DEBE068;Berlin Mitte;Berlin;;2003-01-01;NA;13.4188;52.5136;BE;Berlin;städtisches Gebiet;städtisch;Hintergrund;Brückenstr.;6;10179;2016-01-01
176;DEBE069;Berlin Mariendorfer Damm;Berlin;;2009-01-01;NA;13.3877;52.4381;BE;Berlin;städtisches Gebiet;städtisch;Verkehr;Mariendorfer Damm;148;12107;2016-01-01
215;DEBW004;Eggenstein;Eggenstein;;1976-09-01;NA;8.4067;49.0766;BW;Baden-Württemberg;ländlich stadtnah;ländlich;Hintergrund;Gewann Zigeunerschlag;;76344;2016-01-01
216;DEBW005;Mannheim-Nord;Mannheim;;1975-01-01;NA;8.4653;49.5441;BW;Baden-Württemberg;vorstädtisches Gebiet;vorstädtisch;Industrie;Gew Steinweg;;68307;2016-01-01
220;DEBW009;Heidelberg;Heidelberg;;1984-01-01;NA;8.6767;49.4195;BW;Baden-Württemberg;städtisches Gebiet;städtisch;Hintergrund;Ecke Berliner-/Blumenthalstr.;;69120;2016-01-01
221;DEBW010;Wiesloch;Wiesloch;;1986-05-01;NA;8.7001;49.3007;BW;Baden-Württemberg;vorstädtisches Gebiet;vorstädtisch;Hintergrund;In der Hessel;;69168;2016-01-01
224;DEBW013;Stuttgart-Bad Cannstatt;Stuttgart;;1981-01-01;NA;9.2297;48.8088;BW;Baden-Württemberg;städtisches Gebiet;städtisch;Hintergrund;Gnesenerstr./Seuberstr.;;70374;2016-01-01
226;DEBW015;Heilbronn;Heilbronn;;1979-11-01;NA;9.2248;49.1655;BW;Baden-Württemberg;städtisches Gebiet;städtisch;Hintergrund;Hans-Rießer-Straße;2109;74076;2016-01-01
228;DEBW019;Ulm;Ulm;;1978-10-01;NA;9.9790;48.3968;BW;Baden-Württemberg;städtisches Gebiet;städtisch;Hintergrund;Böblingerstraße;;89077;2016-01-01
231;DEBW022;Kehl;Kehl;;1982-02-01;NA;7.8023;48.5782;BW;Baden-Württemberg;vorstädtisches Gebiet;vorstädtisch;Industrie;Rheindamm/Yachthafen;;77694;2016-01-01
232;DEBW023;Weil am Rhein;Weil am Rhein;;1982-02-01;NA;7.6333;47.5882;BW;Baden-Württemberg;vorstädtisches Gebiet;vorstädtisch;Hintergrund;Zwölfthauen;3;79576;2016-01-01
233;DEBW024;Ludwigsburg;Ludwigsburg;;1982-03-01;NA;9.1728;48.8992;BW;Baden-Württemberg;vorstädtisches Gebiet;vorstädtisch;Hintergrund;Weimar-/Schweizerstr.;;71636;2016-01-01
236;DEBW027;Reutlingen;Reutlingen;;1982-02-01;NA;9.2073;48.4889;BW;Baden-Württemberg;städtisches Gebiet;städtisch;Hintergrund;"Ebertstraße/Gelände ""Pomologie""";;72762;2016-01-01
238;DEBW029;Aalen;Aalen;;1982-03-01;NA;10.0963;48.8479;BW;Baden-Württemberg;vorstädtisches Gebiet;vorstädtisch;Hintergrund;Bahnhofstraße;115;73430;2016-01-01
240;DEBW031;Schwarzwald-Süd;Münstertal;Kälbelescheuer;1984-01-01;NA;7.7645;47.8099;BW;Baden-Württemberg;ländlich regional;ländlich;Hintergrund;Nähe Kälbelescheuer/Kl. Kaibenkopf;;79244;2016-01-01
242;DEBW033;Pforzheim;Pforzheim;;1989-04-01;NA;8.6655;48.8890;BW;Baden-Württemberg;städtisches Gebiet;städtisch;Hintergrund;Dietlinger-/Wildbaderstr.;;75179;2016-01-01
247;DEBW038;Friedrichshafen;Friedrichshafen;;1987-01-01;NA;9.4857;47.6601;BW;Baden-Württemberg;städtisches Gebiet;städtisch;Hintergrund;Ehlerstr./Polizeirevier;;88046;2016-01-01
248;DEBW039;Villingen-Schwenningen;Villingen-Schwenningen;;1987-06-01;NA;8.4636;48.0487;BW;Baden-Württemberg;vorstädtisches Gebiet;vorstädtisch;Hintergrund;Unterer Dammweg;;78050;2016-01-01
251;DEBW042;Bernhausen;Bernhausen;;1989-12-01;NA;9.2278;48.6781;BW;Baden-Württemberg;vorstädtisches Gebiet;vorstädtisch;Hintergrund;Heubergstraße;;70794;2016-01-01
254;DEBW046;Biberach;Biberach;;1990-11-01;NA;9.8003;48.0899;BW;Baden-Württemberg;vorstädtisches Gebiet;vorstädtisch;Hintergrund;Hans-Liebherr-Straße;;88400;2016-01-01
260;DEBW052;Konstanz;Konstanz;;1990-09-01;NA;9.1693;47.6644;BW;Baden-Württemberg;städtisches Gebiet;städtisch;Hintergrund;Zasius-/Wallgutstr.;;78462;2016-01-01
267;DEBW059;Tauberbischofsheim;Tauberbischofsheim;;1990-11-01;NA;9.6579;49.6348;BW;Baden-Württemberg;vorstädtisches Gebiet;vorstädtisch;Hintergrund;Kläranlage;;97941;2016-01-01
276;DEBW073;Neuenburg;Neuenburg;;1992-11-01;NA;7.5680;47.8190;BW;Baden-Württemberg;vorstädtisches Gebiet;vorstädtisch;Hintergrund;Freiburger Str.;25 a;79395;2016-01-01
279;DEBW076;Baden-Baden;Baden-Baden;;1993-04-22;NA;8.2202;48.7731;BW;Baden-Württemberg;vorstädtisches Gebiet;vorstädtisch;Hintergrund;Aumattstraße;;76530;2016-01-01
282;DEBW080;Karlsruhe Reinhold-Frank-Straße;Karlsruhe;;1994-03-15;NA;8.3872;49.0080;BW;Baden-Württemberg;städtisches Gebiet;städtisch;Verkehr;Reinhold-Frank-Straße;27;76133;2016-01-01
283;DEBW081;Karlsruhe-Nordwest;Karlsruhe;;1985-03-01;NA;8.3556;49.0286;BW;Baden-Württemberg;städtisches Gebiet;städtisch;Hintergrund;Daimlerstraße;17;76185;2016-01-01
286;DEBW084;Freiburg;Freiburg;;1979-06-01;NA;7.8321;48.0015;BW;Baden-Württemberg;städtisches Gebiet;städtisch;Hintergrund;Fehrenbachallee;11;79106;2016-01-01
289;DEBW087;Schwäbische Alb;Erpfingen;Erpfingen;1994-04-27;NA;9.2076;48.3458;BW;Baden-Württemberg;ländlich regional;ländlich;Hintergrund;Sportplatz-Gelände;;72820;2016-01-01
299;DEBW098;Mannheim Friedrichsring;Mannheim;;1994-04-28;NA;8.4720;49.4926;BW;Baden-Württemberg;städtisches Gebiet;städtisch;Verkehr;Friedrichsring;U2;68161;2016-01-01
300;DEBW099;Stuttgart Arnulf-Klett-Platz;Stuttgart;;1994-12-06;NA;9.1807;48.7831;BW;Baden-Württemberg;städtisches Gebiet;städtisch;Verkehr;Arnulf-Klett-Platz;;70173;2016-01-01
308;DEBW107;Tübingen;Tübingen;;2002-01-22;NA;9.0512;48.5077;BW;Baden-Württemberg;vorstädtisches Gebiet;vorstädtisch;Hintergrund;Derendinger Straße, FlSt.Nr. 1645;;72072;2016-01-01
313;DEBW112;Gärtringen;Gärtringen;;2005-12-21;NA;8.9044;48.6456;BW;Baden-Württemberg;vorstädtisches Gebiet;vorstädtisch;Hintergrund;Goethestraße;;71116;2016-01-01
317;DEBW116;Stuttgart Hohenheimer Straße;Stuttgart;;2003-12-23;NA;9.1845;48.7687;BW;Baden-Württemberg;städtisches Gebiet;städtisch;Verkehr;Hohenheimer Straße;64;70184;2016-01-01
318;DEBW117;Ludwigsburg Friedrichstraße;Ludwigsburg;;2003-12-23;NA;9.1900;48.8892;BW;Baden-Württemberg;städtisches Gebiet;städtisch;Verkehr;Friedrichstraße;9;71638;2016-01-01
319;DEBW118;Stuttgart Am Neckartor;Stuttgart;;2003-12-23;NA;9.1910;48.7881;BW;Baden-Württemberg;städtisches Gebiet;städtisch;Verkehr;Am Neckartor;;70190;2016-01-01
321;DEBW120;Leonberg Grabenstraße;Leonberg;;2004-12-29;NA;9.0165;48.8010;BW;Baden-Württemberg;städtisches Gebiet;städtisch;Verkehr;Grabenstraße;;71229;2016-01-01
323;DEBW122;Freiburg Schwarzwaldstraße;Freiburg;;2004-12-27;NA;7.8599;47.9882;BW;Baden-Württemberg;städtisches Gebiet;städtisch;Verkehr;Schwarzwaldstraße;;79102;2016-01-01
326;DEBW125;Pfinztal Karlsruher Straße;Berghausen;;2006-01-01;NA;8.5263;49.0037;BW;Baden-Württemberg;vorstädtisches Gebiet;vorstädtisch;Verkehr;Karlsruher Straße;;76327;2016-01-01
337;DEBW136;Tübingen Mühlstraße;Tübingen;;2004-01-01;NA;9.0580;48.5202;BW;Baden-Württemberg;städtisches Gebiet;städtisch;Verkehr;Mühlstraße;;72074;2016-01-01
348;DEBW147;Reutlingen Lederstraße-Ost;Reutlingen;;2007-03-21;NA;9.2108;48.4893;BW;Baden-Württemberg;städtisches Gebiet;städtisch;Verkehr;Lederstraße;;72764;2016-01-01
353;DEBW152;Heilbronn Weinsberger Straße-Ost;Heilbronn;;2009-01-01;NA;9.2259;49.1460;BW;Baden-Württemberg;städtisches Gebiet;städtisch;Verkehr;Weinsberger Straße;;74072;2016-01-01
357;DEBW156;Schramberg Oberndorfer Straße;Schramberg;;2011-08-01;NA;8.3906;48.2292;BW;Baden-Württemberg;städtisches Gebiet;städtisch;Verkehr;Oberndorfer Straße;;78713;2016-01-01
435;DEBY001;Ansbach/Residenzstraße;Ansbach;;1989-07-01;NA;10.5723;49.3049;BY;Bayern;städtisches Gebiet;städtisch;Verkehr;Residenzstraße/Brauhausstraße;;91522;2016-01-01
436;DEBY002;Arzberg/Egerstraße;Arzberg;;1980-01-01;NA;12.1887;50.0582;BY;Bayern;vorstädtisches Gebiet;vorstädtisch;Hintergrund;Egerstraße;17;95659;2016-01-01
438;DEBY004;Kleinwallstadt/Hofstetter Straße;Kleinwallstadt;;1978-08-01;NA;9.1715;49.8694;BY;Bayern;ländlich stadtnah;ländlich;Hintergrund;Hofstetter Straße;13;63839;2016-01-01
439;DEBY005;Aschaffenburg/Bussardweg;Aschaffenburg;;1978-08-01;NA;9.1180;49.9915;BY;Bayern;vorstädtisches Gebiet;vorstädtisch;Hintergrund;Bussardweg;ggüber 2;63741;2016-01-01
440;DEBY006;Augsburg/Königsplatz;Augsburg;;1975-01-01;NA;10.8950;48.3646;BY;Bayern;städtisches Gebiet;städtisch;Verkehr;Königsplatz;;86150;2016-01-01
441;DEBY007;Augsburg/Bourges-Platz;Augsburg;;1986-08-01;NA;10.8884;48.3766;BY;Bayern;städtisches Gebiet;städtisch;Hintergrund;Bourges-Platz;;86153;2016-01-01
443;DEBY009;Bamberg/Löwenbrücke;Bamberg;;1978-01-01;NA;10.8877;49.8983;BY;Bayern;städtisches Gebiet;städtisch;Hintergrund;Löwenbrücke;;96047;2016-01-01
446;DEBY012;Burghausen/Marktler Straße;Burghausen;;1976-01-01;NA;12.8293;48.1772;BY;Bayern;vorstädtisches Gebiet;vorstädtisch;Hintergrund;Klausenstraße;;84489;2016-01-01
447;DEBY013;Mehring/Sportplatz;Mehring;;1977-03-01;NA;12.7814;48.1828;BY;Bayern;ländlich regional;ländlich;Hintergrund;Scheibelbergstraße;;84561;2016-01-01
448;DEBY014;Coburg/Lossaustraße;Coburg;;1987-02-01;NA;10.9593;50.2606;BY;Bayern;städtisches Gebiet;städtisch;Verkehr;Lossaustraße;;96450;2016-01-01
454;DEBY020;Hof/LfU;Hof;;1988-06-01;NA;11.8975;50.3206;BY;Bayern;vorstädtisches Gebiet;vorstädtisch;Hintergrund;Dr.-Enders-Straße;;95030;2016-01-01
455;DEBY021;Ingolstadt/Rechbergstraße;Ingolstadt;;1989-06-01;NA;11.4288;48.7694;BY;Bayern;städtisches Gebiet;städtisch;Verkehr;Rechbergstraße;;85049;2016-01-01
460;DEBY026;Vohburg a.d. Donau/Alter Wöhrer Weg;Vohburg a.d. Donau;;2015-10-22;NA;11.6383;48.7671;BY;Bayern;vorstädtisches Gebiet;vorstädtisch;Hintergrund;Alter Wöhrer Weg;;85088;2016-01-01
462;DEBY028;Kelheim/Regensburger Straße;Kelheim;;1975-01-01;NA;11.8792;48.9095;BY;Bayern;städtisches Gebiet;städtisch;Verkehr;Regensburger Straße;;93309;2016-01-01
464;DEBY030;Saal a.d. Donau/Regensburger Straße;Saal a.d. Donau;;1978-08-01;NA;11.9488;48.9042;BY;Bayern;vorstädtisches Gebiet;vorstädtisch;Hintergrund;Regensburger Straße;;93342;2016-01-01
465;DEBY031;Kempten (Allgäu)/Westendstraße;Kempten (Allgäu);;1976-01-01;NA;10.3066;47.7251;BY;Bayern;vorstädtisches Gebiet;vorstädtisch;Hintergrund;Westend-/Bodmanstraße;;87439;2016-01-01
466;DEBY032;Kulmbach/Konrad-Adenauer-Straße;Kulmbach;;1988-10-01;NA;11.4426;50.1031;BY;Bayern;städtisches Gebiet;städtisch;Hintergrund;Konrad-Adenauer-Straße;;95326;2016-01-01
467;DEBY033;Landshut/Podewilsstraße;Landshut;;1985-12-01;NA;12.1571;48.5398;BY;Bayern;städtisches Gebiet;städtisch;Verkehr;Podewilsstraße;;84028;2016-01-01
469;DEBY035;Lindau (Bodensee)/Friedrichshafener Straße;Lindau (Bodensee);;2013-12-12;NA;9.6889;47.5575;BY;Bayern;städtisches Gebiet;städtisch;Verkehr;Friedrichshafener Straße;;88131;2016-01-01
471;DEBY037;München/Stachus;München;;1978-01-01;NA;11.5649;48.1373;BY;Bayern;städtisches Gebiet;städtisch;Verkehr;Sonnenstraße;;80335;2016-01-01
473;DEBY039;München/Lothstraße;München;;1978-01-01;NA;11.5547;48.1545;BY;Bayern;städtisches Gebiet;städtisch;Hintergrund;Lothstraße;62;80335;2016-01-01
481;DEBY047;Naila/Selbitzer Berg;Naila;;1986-01-01;NA;11.7216;50.3232;BY;Bayern;ländlich stadtnah;ländlich;Hintergrund;Selbitzer Berg;;95119;2016-01-01
483;DEBY049;Neustadt a.d. Donau/Eining;Neustadt a.d. Donau, Gde.teil Eining;;1977-03-01;NA;11.7778;48.8532;BY;Bayern;ländlich regional;ländlich;Hintergrund;KEH7 (Kreisstraße);;93333;2016-01-01
486;DEBY052;Neu-Ulm/Gabelsbergerstraße;Neu-Ulm;;1978-01-01;NA;10.0083;48.3971;BY;Bayern;städtisches Gebiet;städtisch;Hintergrund;Gabelsberger-/Bahnhofstraße;;89231;2016-01-01
487;DEBY053;Nürnberg/Bahnhof;Nürnberg;;1986-09-01;NA;11.0884;49.4459;BY;Bayern;städtisches Gebiet;städtisch;Verkehr;Köhnstraße;;90478;2016-01-01
490;DEBY056;Fürth/Theresienstraße;Fürth;;1990-11-01;NA;10.9847;49.4722;BY;Bayern;städtisches Gebiet;städtisch;Verkehr;Theresienstraße;;90762;2016-01-01
492;DEBY058;Nürnberg/Muggenhof;Nürnberg, Stadtteil Muggenhof;;1978-08-01;NA;11.0248;49.4622;BY;Bayern;städtisches Gebiet;städtisch;Hintergrund;Fuchsstraße;13;90429;2016-01-01
496;DEBY062;Regen/Bodenmaiser Straße;Regen;;1989-02-01;NA;13.1289;48.9724;BY;Bayern;vorstädtisches Gebiet;vorstädtisch;Hintergrund;Bodenmaiser Straße;;94209;2016-01-01
497;DEBY063;Regensburg/Rathaus;Regensburg;;2015-03-11;NA;12.1016;49.0152;BY;Bayern;städtisches Gebiet;städtisch;Verkehr;D.-Martin-Luther-Straße;;93047;2016-01-01
501;DEBY067;Schwandorf/Wackersdorfer Straße;Schwandorf;;1980-01-01;NA;12.1281;49.3220;BY;Bayern;vorstädtisches Gebiet;vorstädtisch;Hintergrund;Wackersdorfer Straße;;92421;2016-01-01
502;DEBY068;Schweinfurt/Obertor;Schweinfurt;;1976-01-01;NA;10.2321;50.0484;BY;Bayern;städtisches Gebiet;städtisch;Hintergrund;Kornmarkt;;97421;2016-01-01
506;DEBY072;Tiefenbach/Altenschneeberg;Tiefenbach, Gde.teil Altenschneeberg;;1983-10-01;NA;12.5489;49.4385;BY;Bayern;ländlich regional;ländlich;Hintergrund;Flurstück-Nr. 14;;93464;2016-01-01
509;DEBY075;Weiden i.d.OPf./Nikolaistraße;Weiden i.d.OPf.;;1980-01-01;NA;12.1594;49.6790;BY;Bayern;städtisches Gebiet;städtisch;Hintergrund;Nikolaistraße;;92637;2016-01-01
511;DEBY077;Würzburg/Kopfklinik;Würzburg;;1975-01-01;NA;9.9564;49.8047;BY;Bayern;vorstädtisches Gebiet;vorstädtisch;Hintergrund;Lindleinstraße;;97080;2016-01-01
513;DEBY079;Bad Reichenhall/Kirchholzstraße;Bad Reichenhall,Kirchholzstraße;;2017-12-05;NA;12.8912;47.7334;BY;Bayern;städtisches Gebiet;städtisch;Hintergrund;Kirchholzstraße;;83435;2016-01-01
522;DEBY088;Trostberg/Schwimmbadstraße;Trostberg;;1992-05-01;NA;12.5382;48.0217;BY;Bayern;vorstädtisches Gebiet;vorstädtisch;Hintergrund;Schwimmbadstr.;;83308;2016-01-01
523;DEBY089;München/Johanneskirchen;München, Stadtteil Johanneskirchen;;1993-07-01;NA;11.6480;48.1732;BY;Bayern;vorstädtisches Gebiet;vorstädtisch;Hintergrund;Nußstraße;;81929;2016-01-01
527;DEBY093;Sulzbach-Rosenberg/Lohe;Sulzbach-Rosenberg;;1999-05-11;NA;11.7863;49.4880;BY;Bayern;vorstädtisches Gebiet;vorstädtisch;Hintergrund;St.-Christophorus-Str.;1;92237;2016-01-01
528;DEBY099;Augsburg/LfU;Augsburg;;2000-07-27;NA;10.9031;48.3260;BY;Bayern;vorstädtisches Gebiet;vorstädtisch;Hintergrund;Bürgermeister-Ulrich-Straße;160;86179;2016-01-01
529;DEBY109;Andechs/Rothenfeld;Andechs, Gde.teil Rothenfeld;;2003-04-17;NA;11.2202;47.9688;BY;Bayern;ländlich regional;ländlich;Hintergrund;Rothenfeld - JVA;;82346;2016-01-01
530;DEBY110;Augsburg/Karlstraße;Augsburg;;2003-08-01;NA;10.8962;48.3702;BY;Bayern;städtisches Gebiet;städtisch;Verkehr;Karlstraße;;86150;2016-01-01
531;DEBY111;Bayreuth/Hohenzollernring;Bayreuth;;2003-08-01;NA;11.5701;49.9436;BY;Bayern;städtisches Gebiet;städtisch;Verkehr;Hohenzollernring;;95444;2016-01-01
533;DEBY113;Erlangen/Kraepelinstraße;Erlangen;;2004-04-01;NA;10.9635;49.6059;BY;Bayern;vorstädtisches Gebiet;vorstädtisch;Hintergrund;Kraepelinstraße;;91056;2016-01-01
535;DEBY115;München/Landshuter Allee;München;;2004-07-01;NA;11.5365;48.1496;BY;Bayern;städtisches Gebiet;städtisch;Verkehr;Landshuter Allee;31;80637;2016-01-01
538;DEBY118;Passau/Stelzhamerstraße;Passau;;2005-04-05;NA;13.4220;48.5736;BY;Bayern;städtisches Gebiet;städtisch;Hintergrund;Stelzhamerstraße;;94036;2016-01-01
539;DEBY119;Würzburg/Stadtring Süd;Würzburg;;2005-11-01;NA;9.9477;49.7905;BY;Bayern;städtisches Gebiet;städtisch;Verkehr;Stadtring Süd;Fußweg Gre;97074;2016-01-01
540;DEBY120;Nürnberg/Von-der-Tann-Straße;Nürnberg;;2006-11-01;NA;11.0361;49.4405;BY;Bayern;städtisches Gebiet;städtisch;Verkehr;Von-der-Tann-Straße;137;90439;2016-01-01
541;DEBY121;Oberaudorf/Inntal-Autobahn;Oberaudorf;;2008-01-01;NA;12.1883;47.6485;BY;Bayern;ländlich stadtnah;ländlich;Verkehr;Auenstraße;;83080;2016-01-01
542;DEBY122;Bad Hindelang/Oberjoch;Bad Hindelang, Gde.teil Oberjoch;;2010-06-21;NA;10.4042;47.5180;BY;Bayern;ländlich regional;ländlich;Hintergrund;Riedlesweg;;87541;2016-01-01
544;DEBY124;Burgbernheim/Grüne Au;Burgbernheim;;2015-07-24;NA;10.3250;49.4441;BY;Bayern;ländlich regional;ländlich;Hintergrund;Grüne Au;;91593;2016-01-01
607;DEBY187;Oettingen/Goethestraße;Oettingen;;2012-07-26;NA;10.5977;48.9522;BY;Bayern;vorstädtisches Gebiet;vorstädtisch;Hintergrund;Goethestraße;;86732;2016-01-01
608;DEBY188;Schwabach/Angerstraße;Schwabach;L 5.16;2012-07-01;NA;11.0279;49.3227;BY;Bayern;städtisches Gebiet;städtisch;Hintergrund;Angerstraße;;91126;2016-01-01
609;DEBY189;München/Allach;München;;2014-01-28;NA;11.4645;48.1817;BY;Bayern;vorstädtisches Gebiet;vorstädtisch;Hintergrund;Allacher Straße;305;80999;2016-01-01
615;DEBY196;Garmisch-Partenkirchen/Wasserwerk;Garmisch-Partenkirchen;L 1.18;2016-01-01;NA;11.0572;47.4771;BY;Bayern;ländlich stadtnah;ländlich;Hintergrund;Tegernauweg;;82467;2016-01-01
616;DEHB001;Bremen-Mitte;Bremen;;1987-01-01;NA;8.8158;53.0772;HB;Bremen;städtisches Gebiet;städtisch;Hintergrund;Präsident-Kennedy-Platz;-;28203;2016-01-01
617;DEHB002;Bremen-Ost;Bremen;;1987-01-01;NA;8.9170;53.0600;HB;Bremen;städtisches Gebiet;städtisch;Hintergrund;Osterholzer-Heerstraße;32;28327;2016-01-01
619;DEHB004;Bremen-Nord;Bremen;;1989-05-01;NA;8.6255;53.1809;HB;Bremen;städtisches Gebiet;städtisch;Hintergrund;Aumunder Feldstraße;41;28757;2016-01-01
620;DEHB005;Bremerhaven-Hansastraße;Bremerhaven;;1989-05-01;NA;8.5694;53.5625;HB;Bremen;städtisches Gebiet;städtisch;Hintergrund;Hansastraße;;27568;2016-01-01
621;DEHB006;Bremen-Dobben;Bremen;;1992-05-01;NA;8.8252;53.0787;HB;Bremen;städtisches Gebiet;städtisch;Verkehr;Dobbenweg 5;;28203;2016-01-01
626;DEHB011;Bremerhaven-Cherbourger Straße;Bremerhaven;Verkehr 4;2008-01-01;NA;8.5988;53.5853;HB;Bremen;städtisches Gebiet;städtisch;Verkehr;Cherbourger Straße;;27578;2016-01-01
627;DEHB012;Bremen-Oslebshausen;Bremen;;2010-05-01;NA;8.7351;53.1317;HB;Bremen;städtisches Gebiet;städtisch;Hintergrund;Menkenkamp;15;28237;2016-01-01
628;DEHB013;Bremen-Hasenbüren;Bremen;;2010-06-08;NA;8.6951;53.1177;HB;Bremen;ländlich regional;ländlich;Industrie;Am Glockensteig;;28197;2016-01-01
629;DEHE001;Darmstadt;Darmstadt;;1995-08-01;NA;8.6646;49.8723;HE;Hessen;städtisches Gebiet;städtisch;Hintergrund;Rudolf Mueller Anlage;;64287;2016-01-01
633;DEHE005;Frankfurt-Höchst;Frankfurt;;1979-01-01;NA;8.5425;50.1018;HE;Hessen;städtisches Gebiet;städtisch;Hintergrund;Dalbergstraße;;65929;2016-01-01
636;DEHE008;Frankfurt-Ost;Frankfurt;;1984-01-01;NA;8.7463;50.1253;HE;Hessen;städtisches Gebiet;städtisch;Hintergrund;Hanauer Landstr.;;60314;2016-01-01
639;DEHE011;Hanau;Hanau;;2013-07-11;NA;8.9216;50.1358;HE;Hessen;städtisches Gebiet;städtisch;Hintergrund;Am Freiheitsplatz;;63450;2016-01-01
641;DEHE013;Kassel-Mitte;Kassel;;1977-01-01;NA;9.4834;51.3142;HE;Hessen;städtisches Gebiet;städtisch;Hintergrund;Hinter der Komödie;;34117;2016-01-01
646;DEHE018;Raunheim;Raunheim;;1977-01-01;NA;8.4515;50.0103;HE;Hessen;städtisches Gebiet;städtisch;Hintergrund;Starkenburger Straße;;65479;2016-01-01
648;DEHE020;Wetzlar;Wetzlar;;1979-01-01;NA;8.5006;50.5672;HE;Hessen;städtisches Gebiet;städtisch;Hintergrund;Hermannsteiner Str.;16A;35576;2016-01-01
650;DEHE022;Wiesbaden-Süd;Wiesbaden;;1977-01-01;NA;8.2449;50.0503;HE;Hessen;städtisches Gebiet;städtisch;Hintergrund;Am Hohen Stein;;65203;2016-01-01
652;DEHE024;Witzenhausen/Wald;Witzenhausen/Wald;;1983-05-01;NA;9.7746;51.2918;HE;Hessen;ländliches Gebiet;ländlich;Hintergrund;Bielstein;;34298;2016-01-01
654;DEHE026;Spessart;Jossgrund;;1986-01-01;NA;9.3994;50.1644;HE;Hessen;ländlich regional;ländlich;Hintergrund;;;63637;2016-01-01
656;DEHE028;Fürth/Odenwald;Fürth/Odenwald;;1986-10-01;NA;8.8173;49.6535;HE;Hessen;ländliches Gebiet;ländlich;Hintergrund;Erzberg;;64658;2016-01-01
658;DEHE030;Marburg;Marburg;;1988-01-01;NA;8.7693;50.8043;HE;Hessen;städtisches Gebiet;städtisch;Hintergrund;Gutenberg Str.;;35037;2016-01-01
660;DEHE032;Bebra;Bebra;;1988-01-01;NA;9.8003;50.9700;HE;Hessen;städtisches Gebiet;städtisch;Hintergrund;Goethestr.;2;36179;2016-01-01
665;DEHE037;Wiesbaden-Ringkirche;Wiesbaden;;1991-08-01;NA;8.2303;50.0772;HE;Hessen;städtisches Gebiet;städtisch;Verkehr;Rheinstr.;;65185;2016-01-01
667;DEHE039;Burg Herzberg (Grebenau);Breitenbach/Herzberg;;2010-09-07;NA;9.4594;50.7704;HE;Hessen;ländliches Gebiet;ländlich;Hintergrund;Forsthof Huhnstadt;;36287;2016-01-01
668;DEHE040;Darmstadt-Hügelstraße;Darmstadt;;1993-11-01;NA;8.6537;49.8695;HE;Hessen;städtisches Gebiet;städtisch;Verkehr;Hügelstr.;;64283;2016-01-01
669;DEHE041;Frankfurt-Friedb.Ldstr.;Frankfurt;;1993-03-01;NA;8.6919;50.1246;HE;Hessen;städtisches Gebiet;städtisch;Verkehr;Friedberger-Landstr.;;60316;2016-01-01
670;DEHE042;Linden/Leihgestern;Linden;;1995-04-05;NA;8.6844;50.5330;HE;Hessen;ländliches Gebiet;ländlich;Hintergrund;Steinweg;;35440;2016-01-01
671;DEHE043;Riedstadt;Riedstadt;;1996-03-20;NA;8.5168;49.8252;HE;Hessen;ländlich stadtnah;ländlich;Hintergrund;Flur 9/57;;64560;2016-01-01
672;DEHE044;Limburg;Limburg;;1998-06-10;NA;8.0610;50.3832;HE;Hessen;städtisches Gebiet;städtisch;Hintergrund;Eisenbahnstr.;;65549;2016-01-01
673;DEHE045;Michelstadt;Michelstadt;;1999-05-05;NA;9.0020;49.6725;HE;Hessen;städtisches Gebiet;städtisch;Hintergrund;Ludwig-Arzt-Str.;10;64720;2016-01-01
674;DEHE046;Bad Arolsen;Bad Arolsen/Kohlgrund;;1999-05-11;NA;8.9282;51.4309;HE;Hessen;ländliches Gebiet;ländlich;Hintergrund;An der Thale;;34454;2016-01-01
677;DEHE049;Kassel-Fünffenster-Str.;Kassel;;1999-06-18;NA;9.4911;51.3121;HE;Hessen;städtisches Gebiet;städtisch;Verkehr;Fünffenster-Str.;;34117;2016-01-01
678;DEHE050;Zierenberg;Zierenberg;;2013-05-07;NA;9.2712;51.3608;HE;Hessen;ländliches Gebiet;ländlich;Hintergrund;Bärenberg;;34289;2016-01-01
679;DEHE051;Wasserkuppe;Wasserkuppe;;2000-07-05;NA;9.9359;50.4977;HE;Hessen;ländliches Gebiet;ländlich;Hintergrund;Liegenschaft Wasserkuppe;;36129;2016-01-01
680;DEHE052;Kleiner Feldberg;Glashütten;;1992-03-12;NA;8.4461;50.2219;HE;Hessen;ländliches Gebiet;ländlich;Hintergrund;Feldweg;;61479;2016-01-01
687;DEHE059;Fulda-Petersberger Str.;Fulda;;2005-09-14;NA;9.6849;50.5500;HE;Hessen;städtisches Gebiet;städtisch;Verkehr;Petersberger Str.;24-26;36037;2016-01-01
688;DEHE060;Kellerwald;Edertal-Hemfurth;;2005-10-09;NA;9.0318;51.1548;HE;Hessen;ländlich regional;ländlich;Hintergrund;Peterskopfstr.;999;34549;2016-01-01
689;DEHE061;Gießen-Westanlage;Gießen;;2005-12-12;NA;8.6686;50.5841;HE;Hessen;städtisches Gebiet;städtisch;Verkehr;Westanlage;;35390;2016-01-01
690;DEHE062;Marburg-Univers.Straße;Marburg;;2005-12-20;NA;8.7705;50.8072;HE;Hessen;städtisches Gebiet;städtisch;Verkehr;Universitätsstraße;;35037;2016-01-01
691;DEHE063;Heppenheim-Lehrstraße;Heppenheim;;2005-12-29;NA;8.6420;49.6432;HE;Hessen;städtisches Gebiet;städtisch;Verkehr;Lehrstraße;;64646;2016-01-01
740;DEHE112;Wiesbaden-Schiersteiner Str.;Wiesbaden;;2012-01-01;NA;8.2289;50.0721;HE;Hessen;städtisches Gebiet;städtisch;Verkehr;Schiersteiner Straße;31;65187;2016-01-01
744;DEHE116;Offenbach-Untere Grenzstraße;Offenbach;;2013-11-01;NA;8.7849;50.1015;HE;Hessen;städtisches Gebiet;städtisch;Verkehr;Untere Grenzstraße;22;63075;2016-01-01
759;DEHE131;Limburg-Schiede;Limburg;;2015-06-01;NA;8.0599;50.3864;HE;Hessen;städtisches Gebiet;städtisch;Verkehr;Schiede;49;65549;2016-01-01
762;DEHE134;Fulda-Zentral;Fulda;;2017-01-01;NA;9.6802;50.5464;HE;Hessen;städtisches Gebiet;städtisch;Hintergrund;Buseckstr.;;36043;2017-01-01
763;DEHE135;Frankfurt-Schwanheim;Frankfurt am Main;;2017-08-02;NA;8.5763;50.0755;HE;Hessen;städtisches Gebiet;städtisch;Hintergrund;Schwanheimer Bahnstraße 100;;60529;2017-01-01
784;DEHH008;Hamburg Sternschanze;Hamburg;;1984-03-01;NA;9.9679;53.5641;HH;Hamburg;städtisches Gebiet;städtisch;Hintergrund;Dänenweg;;20357;2016-01-01
791;DEHH015;Hamburg Veddel;Hamburg;;1984-07-01;NA;10.0212;53.5233;HH;Hamburg;städtisches Gebiet;städtisch;Industrie;Am Zollhafen;;20539;2016-01-01
792;DEHH016;Hamburg Billbrook;Hamburg;21BI;1985-01-01;NA;10.0817;53.5290;HH;Hamburg;städtisches Gebiet;städtisch;Industrie;Pinkertweg;;22113;2016-01-01
802;DEHH026;Hamburg Stresemannstraße;Hamburg;;1991-10-24;NA;9.9572;53.5606;HH;Hamburg;städtisches Gebiet;städtisch;Verkehr;Stresemannstraße;95;22769;2016-01-01
809;DEHH033;Hamburg Flughafen Nord;Hamburg;;1994-04-01;NA;9.9980;53.6383;HH;Hamburg;städtisches Gebiet;städtisch;Hintergrund;Nähe Holtkoppel auf Flughafengelände;;22335;2016-01-01
823;DEHH047;Hamburg Bramfeld;Hamburg;51BF;1998-04-01;NA;10.1106;53.6307;HH;Hamburg;vorstädtisches Gebiet;vorstädtisch;Hintergrund;Karlshöhe;;22175;2016-01-01
826;DEHH050;Hamburg Neugraben;Hamburg;52NG;1998-07-01;NA;9.8572;53.4809;HH;Hamburg;vorstädtisches Gebiet;vorstädtisch;Hintergrund;Neugrabener Dorf;79/81;21147;2016-01-01
835;DEHH059;Hamburg Wilhelmsburg;Hamburg;61WB;2000-04-03;NA;9.9906;53.5079;HH;Hamburg;städtisches Gebiet;städtisch;Hintergrund;Rotenhäuser Damm;78a;21107;2016-01-01
840;DEHH064;Hamburg Kieler Straße;Hamburg;64KS;2001-05-31;NA;9.9446;53.5644;HH;Hamburg;städtisches Gebiet;städtisch;Verkehr;Kieler Straße;13;22769;2016-01-01
844;DEHH068;Hamburg Habichtstraße;Hamburg;68HB;2001-12-31;NA;10.0539;53.5923;HH;Hamburg;städtisches Gebiet;städtisch;Verkehr;Habichtstr.;59;22305;2016-01-01
846;DEHH070;Hamburg Max-Brauer-Allee II (Straße);Hamburg;70MB;2002-02-12;NA;9.9430;53.5557;HH;Hamburg;städtisches Gebiet;städtisch;Verkehr;Max-Brauer-Allee;92/94;22765;2016-01-01
848;DEHH072;Hamburg Finkenwerder West;Hamburg;72FI;2004-02-12;NA;9.8441;53.5360;HH;Hamburg;städtisches Gebiet;städtisch;Industrie;Neßkatenweg;1a;21129;2016-01-01
849;DEHH073;Hamburg Finkenwerder Airbus;Hamburg;73FW;2004-02-01;NA;9.8327;53.5321;HH;Hamburg;ländlich stadtnah;ländlich;Industrie;Neßhauptdeich;;21129;2016-01-01
855;DEHH079;Hamburg Altona Elbhang;Hamburg;80KT;2011-12-08;NA;9.9448;53.5453;HH;Hamburg;städtisches Gebiet;städtisch;Hintergrund;Olbersweg;;22767;2016-01-01
857;DEHH081;Hamburg Hafen;Hamburg;;2015-09-29;NA;9.9816;53.5292;HH;Hamburg;städtisches Gebiet;städtisch;Hintergrund;Worthdamm;49;20457;2016-01-01
860;DEMV003;Neubrandenburg;Neubrandenburg;;1992-01-01;2019-12-30;13.2664;53.5598;MV;Mecklenburg-Vorpommern;städtisches Gebiet;städtisch;Verkehr;Am Pferdemarkt;;17033;2016-01-01
861;DEMV004;Gülzow;Gülzow;;1992-01-01;NA;12.0647;53.8178;MV;Mecklenburg-Vorpommern;ländliches Gebiet;ländlich;Hintergrund;Boldebucker Weg;3;18276;2016-01-01
864;DEMV007;Rostock-Stuthof;Rostock-Stuthof;;1993-01-01;NA;12.1741;54.1616;MV;Mecklenburg-Vorpommern;vorstädtisches Gebiet;vorstädtisch;Hintergrund;Dorfstrasse;;18146;2016-01-01
865;DEMV012;Löcknitz;Mewegen;;1994-01-15;NA;14.2574;53.5205;MV;Mecklenburg-Vorpommern;ländliches Gebiet;ländlich;Hintergrund;Holzenberg;;17321;2016-01-01
866;DEMV017;Göhlen;Göhlen;;1998-02-01;NA;11.3630;53.3024;MV;Mecklenburg-Vorpommern;ländliches Gebiet;ländlich;Hintergrund;Hauptstraße;49;19288;2016-01-01
868;DEMV019;Güstrow;Güstrow;;2004-01-01;NA;12.1755;53.7818;MV;Mecklenburg-Vorpommern;städtisches Gebiet;städtisch;Hintergrund;Goldberger Straße;12;18273;2016-01-01
869;DEMV020;Rostock Am Strande;Rostock;;2006-01-01;NA;12.1420;54.0923;MV;Mecklenburg-Vorpommern;städtisches Gebiet;städtisch;Verkehr;Am Strande;103;18055;2016-01-01
870;DEMV021;Rostock-Warnemünde;Rostock-Warnemünde;;2006-05-01;NA;12.0800;54.1713;MV;Mecklenburg-Vorpommern;städtisches Gebiet;städtisch;Hintergrund;Richard-Wagner-Straße;31;18119;2016-01-01
871;DEMV022;Rostock-Holbeinplatz;Rostock;;2008-01-25;NA;12.0996;54.0926;MV;Mecklenburg-Vorpommern;städtisches Gebiet;städtisch;Verkehr;Schweriner Straße;66*;18069;2016-01-01
872;DEMV023;Schwerin-Obotritenring;Schwerin;;2008-04-05;NA;11.3983;53.6318;MV;Mecklenburg-Vorpommern;städtisches Gebiet;städtisch;Verkehr;Obotritenring;106 a;19053;2016-01-01
873;DEMV024;Leizen;Minzow, OT Woldzegarten;;2010-06-16;NA;12.4639;53.3963;MV;Mecklenburg-Vorpommern;ländliches Gebiet;ländlich;Hintergrund;Walower Straße;25b;17209;2016-01-01
874;DEMV025;Stralsund-Knieperdamm;Stralsund;;2011-10-01;NA;13.0810;54.3192;MV;Mecklenburg-Vorpommern;städtisches Gebiet;städtisch;Verkehr;Knieperdamm;73;18435;2016-01-01
875;DEMV026;Garz;Garz;;2013-01-01;NA;13.3421;54.3235;MV;Mecklenburg-Vorpommern;ländliches Gebiet;ländlich;Hintergrund;Schleuse;6c;18574;2016-01-01
877;DEMV028;Wismar;Wismar;;2016-01-01;NA;11.4760;53.9023;MV;Mecklenburg-Vorpommern;städtisches Gebiet;städtisch;Hintergrund;Talliner Strasse 1;;23970;2016-01-01
880;DEMV031;Rostock-Hohe Düne;Rostock - Warnemünde;;2015-01-01;NA;12.0979;54.1773;MV;Mecklenburg-Vorpommern;städtisches Gebiet;städtisch;Industrie;An der See;14;18119;2016-01-01
907;DEMV058;Neubrandenburg Woldegker Straße;Neubrandenburg;;2019-03-01;NA;13.2679;53.5588;MV;Mecklenburg-Vorpommern;städtisches Gebiet;städtisch;Verkehr;Woldegker Straße;4;17033;2020-01-12
911;DENI011;Braunschweig;Braunschweig;;1978-01-01;NA;10.4736;52.2269;NI;Niedersachsen;vorstädtisches Gebiet;vorstädtisch;Hintergrund;Broitzem (Fernmeldeturm);;38122;2016-01-01
914;DENI016;Oker/Harlingerode;Goslar;;1980-05-01;NA;10.4813;51.9016;NI;Niedersachsen;vorstädtisches Gebiet;vorstädtisch;Hintergrund;Eichenweg;61;38642;2016-01-01
916;DENI020;Wolfsburg;Wolfsburg;;1988-02-01;NA;10.8164;52.4408;NI;Niedersachsen;vorstädtisches Gebiet;vorstädtisch;Hintergrund;Krähenhoop;;38448;2016-01-01
922;DENI028;Eichsfeld;Duderstadt;;1986-10-09;NA;10.2385;51.5076;NI;Niedersachsen;vorstädtisches Gebiet;vorstädtisch;Hintergrund;Bostalstraße;;37115;2016-01-01
923;DENI029;Ostfriesland;Emden;;1982-04-01;NA;7.2073;53.3624;NI;Niedersachsen;vorstädtisches Gebiet;vorstädtisch;Hintergrund;Am Eisenbahndock;;26725;2016-01-01
924;DENI031;Jadebusen;Wilhelmshaven;;1984-06-01;NA;8.0906;53.5962;NI;Niedersachsen;ländliches Gebiet;ländlich;Hintergrund;Utterser Landstraße;;26388;2016-01-01
926;DENI038;Osnabrück;Osnabrück;;1988-10-01;NA;8.0529;52.2553;NI;Niedersachsen;städtisches Gebiet;städtisch;Hintergrund;Bomblatstraße;39;49082;2016-01-01
929;DENI041;Weserbergland;Rinteln;;1988-10-01;NA;9.0626;52.1702;NI;Niedersachsen;vorstädtisches Gebiet;vorstädtisch;Hintergrund;Detmolder Str. (Pumpwerk);;31737;2016-01-01
930;DENI042;Göttingen;Göttingen;;1987-09-10;NA;9.9498;51.5511;NI;Niedersachsen;vorstädtisches Gebiet;vorstädtisch;Hintergrund;Nohlstraße;;37075;2016-01-01
931;DENI043;Emsland;Lingen;;1988-10-01;NA;7.3175;52.4986;NI;Niedersachsen;vorstädtisches Gebiet;vorstädtisch;Hintergrund;Am Darmer Sportzentrum;;49809;2016-01-01
932;DENI048;Hannover Verkehr;Hannover;;1989-07-01;NA;9.7155;52.3595;NI;Niedersachsen;städtisches Gebiet;städtisch;Verkehr;Göttinger Straße;;30449;2016-01-01
935;DENI051;Wurmberg;Braunlage;;1991-06-06;NA;10.6125;51.7582;NI;Niedersachsen;ländliches Gebiet;ländlich;Hintergrund;Wurmberg;;38700;2016-01-01
936;DENI052;Allertal;Walsrode;;1991-04-04;NA;9.6230;52.8294;NI;Niedersachsen;vorstädtisches Gebiet;vorstädtisch;Hintergrund;Auf dem Kamp;8;29664;2016-01-01
937;DENI053;Südoldenburg;Bösel;;1991-04-03;NA;7.9426;52.9980;NI;Niedersachsen;vorstädtisches Gebiet;vorstädtisch;Industrie;Beim Steinwitten;15;26219;2016-01-01
938;DENI054;Hannover;Hannover;;1978-01-01;NA;9.7061;52.3629;NI;Niedersachsen;städtisches Gebiet;städtisch;Hintergrund;Am Lindener Berge;;30449;2016-01-01
942;DENI058;Ostfries. Inseln;Norderney;;1996-02-01;NA;7.2140;53.7153;NI;Niedersachsen;ländliches Gebiet;ländlich;Hintergrund;Weiße Düne (Wasserwerk);2;26548;2016-01-01
943;DENI059;Elbmündung;Cuxhaven;;1998-03-20;NA;8.8012;53.8302;NI;Niedersachsen;ländliches Gebiet;ländlich;Hintergrund;Wehldorfer Straße;;27478;2016-01-01
944;DENI060;Wendland;Lüchow;;1998-04-01;NA;11.1671;52.9570;NI;Niedersachsen;ländliches Gebiet;ländlich;Hintergrund;Saaßer Chaussee;;29439;2016-01-01
946;DENI062;Lüneburger Heide;Lüneburg;;1999-04-01;NA;10.4565;53.2470;NI;Niedersachsen;vorstädtisches Gebiet;vorstädtisch;Hintergrund;Zeppelinstraße (Flugplatz);;21337;2016-01-01
947;DENI063;Altes Land;Jork;;1999-02-11;NA;9.6850;53.5242;NI;Niedersachsen;ländliches Gebiet;ländlich;Hintergrund;Ostfeld;;21635;2016-01-01
948;DENI066;Hildesheim Verkehr;Hildesheim;;2011-01-01;NA;9.9502;52.1508;NI;Niedersachsen;städtisches Gebiet;städtisch;Verkehr;Schuhstrasse;28;31134;2019-01-01
949;DENI067;Osnabrück-Verkehr;Osnabrück;;2005-07-01;NA;8.0415;52.2703;NI;Niedersachsen;städtisches Gebiet;städtisch;Verkehr;Schloßwall;18;49080;2016-01-01
950;DENI068;Göttingen-Verkehr;Göttingen;;2019-02-14;NA;9.9283;51.5302;NI;Niedersachsen;städtisches Gebiet;städtisch;Verkehr;Bürgerstr.;20;37073;2016-01-01
952;DENI070;Salzgitter-Drütte;Salzgitter;;2007-08-16;NA;10.4559;52.1537;NI;Niedersachsen;ländliches Gebiet;ländlich;Industrie;Drütter Str.;75;38239;2016-01-01
957;DENI075;Braunschweig-Verkehr;Braunschweig;;2019-02-05;NA;10.5406;52.2667;NI;Niedersachsen;städtisches Gebiet;städtisch;Verkehr;Altewiekring;24;38102;2016-01-01
959;DENI077;Solling-Süd;Uslar, OT Schönhagen;;2010-01-01;NA;9.5546;51.7088;NI;Niedersachsen;ländliches Gebiet;ländlich;Hintergrund;In der Loh (Erlebniswald);;37170;2016-01-01
1025;DENI143;Oldenburg Heiligengeistwall;Oldenburg;;2019-01-17;NA;8.2121;53.1428;NI;Niedersachsen;städtisches Gebiet;städtisch;Verkehr;Heiligengeistwall;2;26122;2016-01-01
1039;DENI157;Wolfsburg Heßlinger Straße;Wolfsburg;;2013-01-01;NA;10.7937;52.4279;NI;Niedersachsen;städtisches Gebiet;städtisch;Verkehr;Heßlinger Straße;13;38440;2016-01-01
1057;DENW002;Datteln-Hagem;Datteln;DATT;1986-12-01;NA;7.3314;51.6414;NW;Nordrhein-Westfalen;vorstädtisches Gebiet;vorstädtisch;Hintergrund;Mozartstraße (Grünfläche Schulgelände);;45711;2016-01-01
1061;DENW006;Lünen-Niederaden;Lünen;NIED;1981-01-02;NA;7.5698;51.5922;NW;Nordrhein-Westfalen;vorstädtisches Gebiet;vorstädtisch;Hintergrund;Kreisstraße (Schule);;44532;2016-01-01
1063;DENW008;Dortmund-Eving;Dortmund;DMD2;1988-11-01;NA;7.4574;51.5369;NW;Nordrhein-Westfalen;städtisches Gebiet;städtisch;Hintergrund;Burgweg;;44145;2016-01-01
1065;DENW010;Unna-Königsborn;Unna;UNNA;1986-11-01;NA;7.6938;51.5475;NW;Nordrhein-Westfalen;vorstädtisches Gebiet;vorstädtisch;Hintergrund;Palaiseaustraße (Schulzentrum);;59425;2016-01-01
1070;DENW015;Marl-Sickingmühle;Marl;SICK;1981-01-01;NA;7.1227;51.6990;NW;Nordrhein-Westfalen;vorstädtisches Gebiet;vorstädtisch;Hintergrund;Alte Straße (vor der Schule);;45772;2016-01-01
1076;DENW021;Bottrop-Welheim;Bottrop;BOTT;1981-08-01;NA;6.9769;51.5260;NW;Nordrhein-Westfalen;städtisches Gebiet;städtisch;Industrie;Welheimer Straße (an der Schule);;46238;2016-01-01
1077;DENW022;Gelsenkirchen-Bismarck;Gelsenkirchen;GELS;1981-08-01;NA;7.1019;51.5336;NW;Nordrhein-Westfalen;vorstädtisches Gebiet;vorstädtisch;Hintergrund;Trinenkamp (Parkplatz am Sportplatz);;45889;2016-01-01
1079;DENW024;Essen-Vogelheim;Essen;EVOG;1985-11-01;NA;6.9810;51.4965;NW;Nordrhein-Westfalen;städtisches Gebiet;städtisch;Hintergrund;Ecke Hafenstraße / Wildstraße;;45356;2016-01-01
1084;DENW029;Hattingen-Blankenstein;Hattingen;HATT;1986-11-01;NA;7.2085;51.4030;NW;Nordrhein-Westfalen;vorstädtisches Gebiet;vorstädtisch;Hintergrund;An der Becke (Gewerbegebiet Zum Ludwigstal);;45527;2016-01-01
1085;DENW030;Wesel-Feldmark;Wesel;WESE;1986-12-01;2020-01-06;6.6297;51.6729;NW;Nordrhein-Westfalen;vorstädtisches Gebiet;vorstädtisch;Hintergrund;Mercatorstraße;;46485;2016-01-01
1089;DENW034;Duisburg-Walsum;Duisburg;WALS;1981-01-02;NA;6.7484;51.5240;NW;Nordrhein-Westfalen;städtisches Gebiet;städtisch;Industrie;Sonnenstraße;;47179;2016-01-01
1093;DENW038;Mülheim-Styrum;Mülheim;STYR;1979-05-01;NA;6.8651;51.4535;NW;Nordrhein-Westfalen;städtisches Gebiet;städtisch;Hintergrund;Neustadtstraße (am Sportplatz);;45476;2016-01-01
1095;DENW040;Duisburg-Buchholz;Duisburg;BUCH;1979-05-01;NA;6.7630;51.3853;NW;Nordrhein-Westfalen;vorstädtisches Gebiet;vorstädtisch;Hintergrund;Böhmerstraße (an der Schule);;47249;2016-01-01
1097;DENW042;Krefeld-Linn;Krefeld;KREF;1983-09-01;NA;6.6402;51.3377;NW;Nordrhein-Westfalen;städtisches Gebiet;städtisch;Hintergrund;Hammerstraße (gegenüber Haus 52);;47809;2016-01-01
1098;DENW043;Essen-Ost Steeler Straße;Essen;VESN;1988-12-01;NA;7.0305;51.4512;NW;Nordrhein-Westfalen;städtisches Gebiet;städtisch;Verkehr;Steeler Straße / Ecke Markgrafenstraße;;45138;2016-01-01
1108;DENW053;Köln-Chorweiler;Köln;CHOR;1981-01-01;NA;6.8846;51.0193;NW;Nordrhein-Westfalen;städtisches Gebiet;städtisch;Hintergrund;Fühlinger Weg;;50765;2016-01-01
1113;DENW058;Hürth;Hürth;HUE2;1989-01-01;NA;6.8738;50.8762;NW;Nordrhein-Westfalen;vorstädtisches Gebiet;vorstädtisch;Industrie;Dunant-Straße (gegenüber dem Sportplatz);;50354;2016-01-01
1114;DENW059;Köln-Rodenkirchen;Köln;RODE;1980-12-01;NA;6.9851;50.8899;NW;Nordrhein-Westfalen;vorstädtisches Gebiet;vorstädtisch;Hintergrund;Friedrich-Ebert-Straße (Baumschule);;50996;2016-01-01
1117;DENW062;Bonn-Auerberg;Bonn;;1986-12-01;NA;7.0826;50.7536;NW;Nordrhein-Westfalen;vorstädtisches Gebiet;vorstädtisch;Hintergrund;An der Josefshöhe (neben P2 Sportplatz);;53117;2016-01-01
1119;DENW064;Simmerath (Eifel);Simmerath;EIFE;1983-09-01;NA;6.2810;50.6532;NW;Nordrhein-Westfalen;ländlich regional;ländlich;Hintergrund;An der B399 ca. 6km von Simmerath;;52152;2016-01-01
1120;DENW065;Netphen Rothaargebirge;Netphen;;1985-12-01;NA;8.1919;50.9303;NW;Nordrhein-Westfalen;ländlich regional;ländlich;Hintergrund;Nauholzer Weg (gegenüber Försterei Hohenroth);;57271;2016-01-01
1121;DENW066;Nettetal-Kaldenkirchen;Nettetal;;1987-12-01;NA;6.1958;51.3269;NW;Nordrhein-Westfalen;ländlich stadtnah;ländlich;Hintergrund;Juiser Feld;;41334;2016-01-01
1122;DENW067;Bielefeld-Ost;Bielefeld;BIEL;1989-03-01;NA;8.5484;52.0232;NW;Nordrhein-Westfalen;städtisches Gebiet;städtisch;Hintergrund;Hermann-Delius-Straße / Ecke Bleichstraße;;33607;2016-01-01
1123;DENW068;Soest-Ost;Soest;SOES;1989-03-01;NA;8.1480;51.5707;NW;Nordrhein-Westfalen;ländlich stadtnah;ländlich;Hintergrund;Enkesenweg;;59494;2016-01-01
1126;DENW071;Düsseldorf-Lörick;Düsseldorf;LOER;1983-09-01;NA;6.7324;51.2492;NW;Nordrhein-Westfalen;städtisches Gebiet;städtisch;Hintergrund;Zum Niederkasseler Deich;;40547;2016-01-01
1129;DENW074;Niederzier;Niederzier;NIZI;1991-08-01;NA;6.4693;50.8835;NW;Nordrhein-Westfalen;ländlich stadtnah;ländlich;Industrie;Treibbachstraße (am Feuerwehrgerätehaus);;52382;2016-01-01
1133;DENW078;Ratingen-Tiefenbroich;Ratingen;;1998-04-23;NA;6.8199;51.3034;NW;Nordrhein-Westfalen;vorstädtisches Gebiet;vorstädtisch;Hintergrund;Daniel-Goldbach-Straße;;40880;2016-01-01
1134;DENW079;Leverkusen-Manfort;Leverkusen;LEV2;1998-04-23;NA;7.0050;51.0289;NW;Nordrhein-Westfalen;vorstädtisches Gebiet;vorstädtisch;Hintergrund;Manforter Straße;;51373;2016-01-01
1135;DENW080;Solingen-Wald;Solingen;SOLI;1998-07-01;NA;7.0526;51.1838;NW;Nordrhein-Westfalen;vorstädtisches Gebiet;vorstädtisch;Hintergrund;Dültgenstaler Straße;;42719;2016-01-01
1136;DENW081;Borken-Gemen;Borken;BORG;1998-09-11;NA;6.8745;51.8620;NW;Nordrhein-Westfalen;ländlich stadtnah;ländlich;Hintergrund;Pumpenwerk, Lise-Meitner-Straße 4;;46325;2016-01-01
1137;DENW082;Düsseldorf Corneliusstraße;Düsseldorf;DDCS;1997-03-13;NA;6.7825;51.2132;NW;Nordrhein-Westfalen;städtisches Gebiet;städtisch;Verkehr;Corneliusstraße;71;40215;2016-01-01
1139;DENW094;Aachen-Burtscheid;Aachen;AABU;1999-07-05;NA;6.0938;50.7547;NW;Nordrhein-Westfalen;städtisches Gebiet;städtisch;Hintergrund;Hein-Görgen-Straße;;52066;2016-01-01
1140;DENW095;Münster-Geist;Münster;MSGE;1999-10-06;NA;7.6116;51.9365;NW;Nordrhein-Westfalen;städtisches Gebiet;städtisch;Hintergrund;Gut Insel (Gelände der Ludwig-Erhard-Schule);;48151;2016-01-01
1141;DENW096;Mönchengladbach-Rheydt;Mönchengladbach;MGRH;1999-11-09;NA;6.4256;51.1546;NW;Nordrhein-Westfalen;vorstädtisches Gebiet;vorstädtisch;Hintergrund;Urftstraße / Ecke Hubertusstraße;;41239;2016-01-01
1146;DENW101;Dortmund Steinstraße;Dortmund;VDOR;2001-12-01;2020-01-06;7.4642;51.5196;NW;Nordrhein-Westfalen;städtisches Gebiet;städtisch;Verkehr;Steinstraße / Ecke Münsterstraße;;44147;2016-01-01
1157;DENW112;Duisburg Kardinal-Galen-Straße;Duisburg;VDUI;2002-06-10;NA;6.7719;51.4377;NW;Nordrhein-Westfalen;städtisches Gebiet;städtisch;Verkehr;Kardinal-Galen-Straße;;47051;2016-01-01
1159;DENW114;Wuppertal-Langerfeld;Wuppertal;WULA;2002-12-03;NA;7.2319;51.2776;NW;Nordrhein-Westfalen;städtisches Gebiet;städtisch;Hintergrund;Am Buchenloh;;42389;2016-01-01
1161;DENW116;Krefeld (Hafen);Krefeld;KRHA;2002-10-29;NA;6.6702;51.3426;NW;Nordrhein-Westfalen;vorstädtisches Gebiet;vorstädtisch;Industrie;Hentrichstraße;;47809;2016-01-01
1177;DENW133;Hagen Graf-von-Galen-Ring;Hagen;VHAM;2002-08-29;NA;7.4636;51.3628;NW;Nordrhein-Westfalen;städtisches Gebiet;städtisch;Verkehr;Graf-von-Galen-Ring;9;58095;2016-01-01
1178;DENW134;Essen Gladbecker Straße;Essen;VEAE;2003-10-29;NA;7.0053;51.4779;NW;Nordrhein-Westfalen;städtisches Gebiet;städtisch;Verkehr;Gladbecker Straße;244;45326;2016-01-01
1180;DENW136;Dortmund Brackeler Straße;Dortmund;VDOM;2003-11-15;NA;7.4836;51.5235;NW;Nordrhein-Westfalen;städtisches Gebiet;städtisch;Verkehr;Brackeler Straße;14/16;44145;2016-01-01
1222;DENW179;Schwerte;Schwerte;SHW2;2005-11-03;NA;7.5822;51.4488;NW;Nordrhein-Westfalen;städtisches Gebiet;städtisch;Hintergrund;Konrad-Zuse-Straße;;58239;2016-01-01
1224;DENW181;Warstein;Warstein;WAST;2005-12-22;NA;8.3608;51.4430;NW;Nordrhein-Westfalen;städtisches Gebiet;städtisch;Industrie;Rangetriftweg;;59581;2016-01-01
1225;DENW182;Elsdorf-Berrendorf;Elsdorf;ELSB;2017-01-05;NA;6.5822;50.9271;NW;Nordrhein-Westfalen;ländlich stadtnah;ländlich;Industrie;Zum Sportplatz / Holunderweg;;50189;2017-01-01
1231;DENW188;Oberhausen Mülheimer Straße 117;Oberhausen;;2005-06-27;NA;6.8636;51.4749;NW;Nordrhein-Westfalen;städtisches Gebiet;städtisch;Verkehr;Mülheimer Straße;117;46045;2016-01-01
1232;DENW189;Wuppertal Gathe;Wuppertal;VWEL;2005-06-30;NA;7.1474;51.2607;NW;Nordrhein-Westfalen;städtisches Gebiet;städtisch;Verkehr;Gathe / Wilhelmstraße;;42107;2016-01-01
1243;DENW200;Bielefeld Detmolder Straße;Bielefeld;VBID;2015-01-01;NA;8.5528;52.0056;NW;Nordrhein-Westfalen;städtisches Gebiet;städtisch;Verkehr;Detmolder Straße;177/179;33604;2016-01-01
1249;DENW206;Solingen Konrad-Adenauer-Straße;Solingen;;2017-01-04;NA;7.0841;51.1762;NW;Nordrhein-Westfalen;städtisches Gebiet;städtisch;Verkehr;Konrad-Adenauer-Straße;21;42651;2017-01-01
1250;DENW207;Aachen Wilhelmstraße;Aachen;VACW;2007-01-10;NA;6.0958;50.7731;NW;Nordrhein-Westfalen;städtisches Gebiet;städtisch;Verkehr;Wilhelmstraße;22/24;52070;2016-01-01
1251;DENW208;Gelsenkirchen Kurt-Schumacher-Straße;Gelsenkirchen;VGES;2011-01-10;NA;7.0846;51.5279;NW;Nordrhein-Westfalen;städtisches Gebiet;städtisch;Verkehr;Kurt-Schumacher-Straße;109;45881;2016-01-01
1254;DENW211;Köln Clevischer Ring;Köln;;2006-05-06;NA;7.0046;50.9628;NW;Nordrhein-Westfalen;städtisches Gebiet;städtisch;Verkehr;Clevischer Ring;3;51065;2016-01-01
1255;DENW212;Köln Turiner Straße;Köln;VKTU;2007-03-29;NA;6.9576;50.9473;NW;Nordrhein-Westfalen;städtisches Gebiet;städtisch;Verkehr;Turiner Straße;19;50668;2016-01-01
1290;DENW247;Essen-Schuir (LANUV);Essen;ELAN;2008-05-01;NA;6.9656;51.4068;NW;Nordrhein-Westfalen;vorstädtisches Gebiet;vorstädtisch;Hintergrund;Wallneyer Straße (Gelände des LANUV);6;45133;2016-01-01
1302;DENW259;Mönchengladbach Friedrich-Ebert-Straße;Mönchengladbach;VMGF;2009-01-09;NA;6.4399;51.1694;NW;Nordrhein-Westfalen;städtisches Gebiet;städtisch;Verkehr;Friedrich-Ebert-Straße;111/115;41236;2016-01-01
1303;DENW260;Münster Weseler Straße;Münster;VMS2;2009-01-12;NA;7.6194;51.9533;NW;Nordrhein-Westfalen;städtisches Gebiet;städtisch;Verkehr;Weseler Straße;38/40;48151;2016-01-01
1372;DENW329;Jackerath;Jackerath;JACK;2013-01-03;NA;6.4515;51.0338;NW;Nordrhein-Westfalen;ländliches Gebiet;ländlich;Industrie;Jülicher Straße;30/32;52445;2016-01-01
1380;DENW337;Jüchen-Hochneukirch;Jüchen;JHNK;2014-01-06;NA;6.4695;51.0976;NW;Nordrhein-Westfalen;ländlich stadtnah;ländlich;Industrie;Peter-Busch-Straße;;41363;2016-01-01
1381;DENW338;Duisburg-Bruckhausen;Duisburg;DUB2;2014-01-01;NA;6.7354;51.4855;NW;Nordrhein-Westfalen;städtisches Gebiet;städtisch;Industrie;Kaiser-Wilhelm-Straße / Ecke Kronstraße;;47169;2016-01-01
1397;DENW355;Leverkusen Gustav-Heinemann-Straße;Leverkusen;VLEG;2015-01-07;NA;7.0109;51.0315;NW;Nordrhein-Westfalen;städtisches Gebiet;städtisch;Verkehr;Gustav-Heinemann-Straße;;51377;2016-01-01
1409;DENW367;Gladbeck Goethestraße;Gladbeck;VGLG;2016-01-01;NA;6.9909;51.5681;NW;Nordrhein-Westfalen;städtisches Gebiet;städtisch;Verkehr;Goethestraße;1;45964;2016-01-01
1422;DENW381;Neuss (Rheinhafen);Neuss;;2017-09-13;2019-12-17;6.7041;51.2196;NW;Nordrhein-Westfalen;städtisches Gebiet;städtisch;Hintergrund;Tilsiter Straße;;41460;2017-01-01
1423;DENW382;Duisburg (Rheinhafen);Duisburg;;2017-10-17;NA;6.7275;51.4607;NW;Nordrhein-Westfalen;städtisches Gebiet;städtisch;Hintergrund;Deichstrasse;11;47119;2017-01-01
1424;DENW383;Bielefeld Herforder Straße;Bielefeld;VBIH;2018-01-04;NA;8.5341;52.0242;NW;Nordrhein-Westfalen;städtisches Gebiet;städtisch;Verkehr;Herforder Straße;5/7;33602;2018-01-01
1438;DERP001;Ludwigshafen-Oppau;Ludwigshafen;;1978-01-01;NA;8.4023;49.5150;RP;Rheinland-Pfalz;städtisches Gebiet;städtisch;Hintergrund;Horst-Schork-Str./Windhorststr.;;67069;2016-01-01
1440;DERP003;Ludwigshafen-Mundenheim;Ludwigshafen;;1978-01-01;NA;8.4259;49.4555;RP;Rheinland-Pfalz;städtisches Gebiet;städtisch;Industrie;Guiliniplatz;;67065;2016-01-01
1444;DERP007;Mainz-Mombach;Mainz;;1978-01-01;NA;8.2168;50.0176;RP;Rheinland-Pfalz;städtisches Gebiet;städtisch;Hintergrund;Dr. Falk-Weg/Pfarrer-Bechtolsheimer-Weg;;55120;2016-01-01
1446;DERP009;Mainz-Zitadelle;Mainz;;1978-01-01;NA;8.2740;49.9950;RP;Rheinland-Pfalz;städtisches Gebiet;städtisch;Hintergrund;Eisgrubweg/Windmühlenstraße;;55116;2016-01-01
1447;DERP010;Mainz-Parcusstraße;Mainz;;1979-01-01;NA;8.2611;50.0010;RP;Rheinland-Pfalz;städtisches Gebiet;städtisch;Verkehr;Parcusstraße/Bahnhofstraße;;55116;2016-01-01
1448;DERP011;Mainz-Rheinallee;Mainz;;1987-02-19;NA;8.2658;50.0099;RP;Rheinland-Pfalz;städtisches Gebiet;städtisch;Verkehr;Rheinallee/Frauenlobstraße;;55118;2016-01-01
1450;DERP013;Westpfalz-Waldmohr;Dunzweiler;Dunzweiler;1984-01-01;NA;7.2935;49.4231;RP;Rheinland-Pfalz;ländliches Gebiet;ländlich;Hintergrund;Bamberger Hof;;66916;2016-01-01
1451;DERP014;Hunsrück-Leisel;Leisel;Idar-Oberstein;1984-01-01;NA;7.1934;49.7409;RP;Rheinland-Pfalz;ländliches Gebiet;ländlich;Hintergrund;Forstrevier;;55767;2016-01-01
1452;DERP015;Westeifel Wascheid;Wascheid;Prüm;1984-01-01;NA;6.3781;50.2665;RP;Rheinland-Pfalz;ländliches Gebiet;ländlich;Hintergrund;Forstrevier;;54597;2016-01-01
1453;DERP016;Westerwald-Herdorf;Herdorf;;1984-01-01;NA;7.9735;50.7668;RP;Rheinland-Pfalz;ländliches Gebiet;ländlich;Hintergrund;Forstrevier;;57562;2016-01-01
1454;DERP017;Pfälzerwald-Hortenkopf;Hortenkopf/Weissenberg;Merzalben;1986-01-01;NA;7.8264;49.2703;RP;Rheinland-Pfalz;ländliches Gebiet;ländlich;Hintergrund;Forstrevier;;66978;2016-01-01
1456;DERP019;Kaiserslautern-Rathausplatz;Kaiserslautern;;1986-01-01;NA;7.7673;49.4460;RP;Rheinland-Pfalz;städtisches Gebiet;städtisch;Hintergrund;Rathausplatz;;67659;2016-01-01
1457;DERP020;Trier-Ostallee;Trier;;1986-01-01;NA;6.6467;49.7542;RP;Rheinland-Pfalz;städtisches Gebiet;städtisch;Verkehr;Ostallee;;54290;2016-01-01
1458;DERP021;Neuwied-Hafenstraße;Neuwied;;1988-01-01;NA;7.4814;50.4247;RP;Rheinland-Pfalz;städtisches Gebiet;städtisch;Hintergrund;Hafenstraße;;56564;2016-01-01
1459;DERP022;Bad Kreuznach-Bosenheimer Straße;Bad Kreuznach;;1989-01-01;NA;7.8662;49.8412;RP;Rheinland-Pfalz;städtisches Gebiet;städtisch;Hintergrund;Bosenheimer Straße;;55543;2016-01-01
1460;DERP023;Worms-Hagenstraße;Worms;;1990-01-01;NA;8.3649;49.6287;RP;Rheinland-Pfalz;städtisches Gebiet;städtisch;Verkehr;Hagenstraße;;67547;2016-01-01
1461;DERP024;Koblenz-Friedrich-Ebert-Ring;Koblenz;;1992-01-01;NA;7.5966;50.3544;RP;Rheinland-Pfalz;städtisches Gebiet;städtisch;Verkehr;Friedrich-Ebert-Ring;;56068;2016-01-01
1462;DERP025;Wörth-Marktplatz;Wörth;;1990-05-31;NA;8.2535;49.0523;RP;Rheinland-Pfalz;städtisches Gebiet;städtisch;Hintergrund;Marktplatz;;76744;2016-01-01
1463;DERP026;Frankenthal-Europaring;Frankenthal;;1991-01-01;NA;8.3553;49.5333;RP;Rheinland-Pfalz;städtisches Gebiet;städtisch;Verkehr;Europaring;;67227;2016-01-01
1465;DERP028;Westerwald-Neuhäusel;Neuhäusel;;1994-01-01;NA;7.7299;50.4243;RP;Rheinland-Pfalz;ländliches Gebiet;ländlich;Hintergrund;Forstrevier;;56410;2016-01-01
1475;DERP041;Ludwigshafen-Heinigstraße;Ludwigshafen;;2017-12-05;NA;8.4439;49.4785;RP;Rheinland-Pfalz;städtisches Gebiet;städtisch;Verkehr;Heinigstraße/Kaiser-Wilhelm-Straße;;67059;2016-01-01
1479;DERP045;Koblenz-Hohenfelder Straße;Koblenz;;2005-12-14;NA;7.5922;50.3594;RP;Rheinland-Pfalz;städtisches Gebiet;städtisch;Verkehr;Hohenfelder Straße;170;56068;2016-01-01
1480;DERP046;Neuwied-Hermannstraße;Neuwied;;2008-01-24;NA;7.4607;50.4314;RP;Rheinland-Pfalz;städtisches Gebiet;städtisch;Verkehr;Hermannstraße;;56564;2016-01-01
1481;DERP047;Trier-Pfalzel;Trier;;2007-03-01;NA;6.6903;49.7840;RP;Rheinland-Pfalz;vorstädtisches Gebiet;vorstädtisch;Industrie;Eltzstraße;19;54293;2016-01-01
1487;DERP053;Speyer-Nord;Speyer;;2013-11-15;NA;8.4230;49.3511;RP;Rheinland-Pfalz;vorstädtisches Gebiet;vorstädtisch;Hintergrund;Meisenweg;;67346;2016-01-01
1494;DERP060;Pirmasens-Innenstadt;Pirmasens;;2014-12-10;NA;7.6146;49.1920;RP;Rheinland-Pfalz;städtisches Gebiet;städtisch;Hintergrund;Lemberger Straße;;66955;2016-01-01
1498;DESL001;Berus;Überherrn;BERU;1987-03-01;NA;6.6871;49.2639;SL;Saarland;ländliches Gebiet;ländlich;Hintergrund;Wetterstation;;66802;2016-01-01
1499;DESL002;Bexbach Schule;Bexbach;BEXB;2018-01-01;NA;7.2634;49.3620;SL;Saarland;vorstädtisches Gebiet;vorstädtisch;Hintergrund;Grundschule, Am Kälberberg;;66450;2016-01-01
1500;DESL003;Dillingen City;Dillingen;DICY;2018-01-01;NA;6.7335;49.3579;SL;Saarland;städtisches Gebiet;städtisch;Industrie;Roonstrasse , gegenüber Hausnr. 39;;66763;2016-01-01
1503;DESL006;Lauterbach;Völklingen;LAUT;1987-07-01;NA;6.7449;49.1836;SL;Saarland;vorstädtisches Gebiet;vorstädtisch;Hintergrund;Köhlerstraße/Glashüttenplatz;;66333;2016-01-01
1507;DESL010;Saarbrücken-Burbach;Saarbrücken;BURB;1983-07-01;NA;6.9488;49.2442;SL;Saarland;städtisches Gebiet;städtisch;Hintergrund;Von-der-Heydt-Straße;;66115;2016-01-01
1508;DESL011;Saarbrücken-Eschberg;Saarbrücken;OSSB;1983-07-01;NA;7.0363;49.2372;SL;Saarland;städtisches Gebiet;städtisch;Hintergrund;Magdeburgerstr./Pommernring;;66121;2016-01-01
1509;DESL012;Saarbrücken-City;Saarbrücken;SBCY;1983-07-01;NA;6.9876;49.2335;SL;Saarland;städtisches Gebiet;städtisch;Hintergrund;Stengelstraße;;66117;2016-01-01
1510;DESL013;Saarlouis-Fraulautern;Saarlouis;FRAL;1983-07-01;NA;6.7536;49.3226;SL;Saarland;vorstädtisches Gebiet;vorstädtisch;Hintergrund;von Lettow Vorbeck-Brücke;;66740;2016-01-01
1514;DESL017;Völklingen-City Stadionstr.;Völklingen;VKCY;1989-05-01;NA;6.8677;49.2543;SL;Saarland;städtisches Gebiet;städtisch;Hintergrund;Stadionstraße;;66333;2016-01-01
1516;DESL019;Biringen;Rehlingen-Siersburg;BIRI;2003-02-01;NA;6.5520;49.4169;SL;Saarland;ländlich regional;ländlich;Hintergrund;Dorfstraße;;66780;2016-01-01
1517;DESL020;Saarbrücken-Verkehr;Saarbrücken;SBVS;2004-10-01;NA;7.0032;49.2307;SL;Saarland;städtisches Gebiet;städtisch;Verkehr;Mainzer Straße;44;66121;2016-01-01
1527;DESL030;Ottweiler;Ottweiler;OTTW;2018-01-01;NA;7.1656;49.3995;SL;Saarland;städtisches Gebiet;städtisch;Verkehr;Martin-Luther-Str.;23;66564;2018-01-01
1528;DESH001;Altendeich;Altendeich;;1979-07-31;NA;9.5859;53.6706;SH;Schleswig-Holstein;ländlich regional;ländlich;Hintergrund;Audeich;;25436;2016-01-01
1535;DESH008;Bornhöved;Ruhwinkel;;1988-01-01;NA;10.2406;54.0932;SH;Schleswig-Holstein;ländlich regional;ländlich;Hintergrund;Bornhöveder Landstraße;;24601;2016-01-01
1540;DESH013;Fehmarn;Fehmarn;;1994-05-19;NA;11.2160;54.4130;SH;Schleswig-Holstein;ländlich regional;ländlich;Hintergrund;Südstrand;;23769;2016-01-01
1541;DESH014;St.-Peter-Ording;St. Peter Ording;;1994-05-31;NA;8.6035;54.3278;SH;Schleswig-Holstein;ländlich regional;ländlich;Hintergrund;Strandweg;;25826;2016-01-01
1542;DESH015;Itzehoe;Itzehoe;;1993-08-19;NA;9.5326;53.9247;SH;Schleswig-Holstein;städtisches Gebiet;städtisch;Hintergrund;Oelixdorfer Str.;2;25524;2016-01-01
1543;DESH016;Barsbüttel;Barsbüttel;;1995-06-14;NA;10.2149;53.5706;SH;Schleswig-Holstein;vorstädtisches Gebiet;vorstädtisch;Hintergrund;Kleikampsweg;1;22885;2016-01-01
1549;DESH022;Flensburg;Flensburg;;2001-02-01;NA;9.4381;54.7814;SH;Schleswig-Holstein;städtisches Gebiet;städtisch;Verkehr;Dr. Todsen Str.;1;24937;2016-01-01
1550;DESH023;Lübeck-St. Jürgen;Lübeck;;2001-01-01;NA;10.6959;53.8355;SH;Schleswig-Holstein;städtisches Gebiet;städtisch;Hintergrund;Maria-Goeppert-Straße;;23562;2016-01-01
1552;DESH025;Itzehoe Lindenstr.;Itzehoe;IZ-LIN;2001-12-11;NA;9.5118;53.9280;SH;Schleswig-Holstein;städtisches Gebiet;städtisch;Verkehr;Lindenstraße;4-6;25524;2016-01-01
1554;DESH027;Kiel-Bahnhofstr. Verk.;Kiel;;2005-05-11;NA;10.1352;54.3047;SH;Schleswig-Holstein;städtisches Gebiet;städtisch;Verkehr;Bahnhofstraße;9;24143;2016-01-01
1557;DESH030;Norderstedt;Norderstedt;;2006-06-30;NA;9.9973;53.6820;SH;Schleswig-Holstein;städtisches Gebiet;städtisch;Verkehr;Ohechaussee;;22848;2016-01-01
1562;DESH035;Brunsbüttel-Cuxhavener Straße;Brunsbüttel;;2008-05-08;NA;9.1569;53.8961;SH;Schleswig-Holstein;städtisches Gebiet;städtisch;Hintergrund;Cuxhavener Straße;2;25541;2016-01-01
1579;DESH052;Kiel-Theodor-Heuss-Ring;Kiel;;2012-01-01;NA;10.1224;54.3042;SH;Schleswig-Holstein;städtisches Gebiet;städtisch;Verkehr;Theodor-Heuss-Ring;65;24113;2016-01-01
1580;DESH053;Lübeck Moislinger Allee;Lübeck;;2013-10-29;NA;10.6733;53.8622;SH;Schleswig-Holstein;städtisches Gebiet;städtisch;Verkehr;Moislinger Allee;24;23558;2016-01-01
1582;DESH055;Lübeck Fackenburger Allee;Lübeck;;2015-01-01;NA;10.6649;53.8745;SH;Schleswig-Holstein;städtisches Gebiet;städtisch;Verkehr;Fackenburger Allee;51;23554;2016-01-01
1583;DESH056;Eggebek;Eggebek;;2017-01-19;NA;9.3637;54.6167;SH;Schleswig-Holstein;ländlich regional;ländlich;Hintergrund;Am Beektal;1;24852;2017-01-01
1584;DESH057;Kiel-Bremerskamp;Kiel;;2017-06-22;NA;10.1056;54.3476;SH;Schleswig-Holstein;städtisches Gebiet;städtisch;Hintergrund;Bremerskamp;;24106;2017-01-01
1585;DESH058;Lauenburg-Murjahnstraße;Lauenburg;LAU_MURJ;2018-01-01;NA;10.5405;53.3823;SH;Schleswig-Holstein;städtisches Gebiet;städtisch;Hintergrund;Murjahnstraße;37;21481;2018-01-01
1589;DESN001;Annaberg-Buchholz;Annaberg-Buchholz;;1994-09-01;NA;12.9973;50.5709;SN;Sachsen;städtisches Gebiet;städtisch;Hintergrund;Talstr./Str. der Einheit;;09456;2016-01-01
1592;DESN004;Bautzen;Bautzen;;1994-09-01;NA;14.4438;51.1757;SN;Sachsen;städtisches Gebiet;städtisch;Hintergrund;Stieberstr./Goethestr.;;02625;2016-01-01
1594;DESN006;Borna;Borna;;2015-04-14;NA;12.4931;51.1250;SN;Sachsen;städtisches Gebiet;städtisch;Verkehr;Sachsenallee;45;04552;2016-01-01
1605;DESN017;Freiberg;Freiberg;;1994-09-01;NA;13.3468;50.9163;SN;Sachsen;städtisches Gebiet;städtisch;Hintergrund;Helmertplatz;;09599;2016-01-01
1607;DESN019;Glauchau;Glauchau;;1994-09-01;NA;12.5421;50.8260;SN;Sachsen;städtisches Gebiet;städtisch;Hintergrund;Güterbahnhofstraße 25;;08371;2016-01-01
1608;DESN020;Görlitz;Görlitz;;1986-10-01;NA;14.9740;51.1558;SN;Sachsen;städtisches Gebiet;städtisch;Verkehr;Zeppelinstr.;10;02828;2016-01-01
1612;DESN024;Klingenthal;Klingenthal;;1994-09-01;NA;12.4687;50.3548;SN;Sachsen;städtisches Gebiet;städtisch;Hintergrund;Graslitzer Str. (Parkplatz);;08248;2016-01-01
1613;DESN025;Leipzig-Mitte;Leipzig;;1990-12-01;NA;12.3772;51.3442;SN;Sachsen;städtisches Gebiet;städtisch;Verkehr;Willy-Brandt-Platz/Am Hallischen Tor;;04109;2016-01-01
1633;DESN045;Zittau-Ost;Zittau;;1990-07-01;NA;14.8228;50.8924;SN;Sachsen;vorstädtisches Gebiet;vorstädtisch;Hintergrund;Brückenstr.;12;02763;2016-01-01
1637;DESN049;Carlsfeld;Carlsfeld;;1990-07-01;NA;12.6111;50.4313;SN;Sachsen;ländlich abgelegen;ländlich;Hintergrund;Weitersglashütte;2a;08309;2016-01-01
1639;DESN051;Radebeul-Wahnsdorf;Radebeul;;1967-12-01;NA;13.6750;51.1195;SN;Sachsen;ländlich stadtnah;ländlich;Hintergrund;Altwahnsdorf;12;01445;2016-01-01
1640;DESN052;Zinnwald;Zinnwald;;1971-02-01;NA;13.7515;50.7315;SN;Sachsen;ländlich regional;ländlich;Hintergrund;Hochmoorweg;7;01773;2016-01-01
1641;DESN053;Fichtelberg;Oberwiesenthal;;1969-01-01;NA;12.9535;50.4285;SN;Sachsen;ländlich abgelegen;ländlich;Hintergrund;Gipfelplateau (DWD);;09484;2016-01-01
1647;DESN059;Leipzig-West;Leipzig;;1994-09-01;NA;12.2974;51.3179;SN;Sachsen;städtisches Gebiet;städtisch;Hintergrund;Nikolai-Rumjanzew-Str.;100;04207;2016-01-01
1649;DESN061;Dresden-Nord;Dresden;;1994-09-01;NA;13.7414;51.0649;SN;Sachsen;städtisches Gebiet;städtisch;Verkehr;Schlesischer Platz;;01097;2016-01-01
1662;DESN074;Schwartenberg;Neuhausen;;1998-02-06;NA;13.4651;50.6591;SN;Sachsen;ländlich regional;ländlich;Hintergrund;Am Schwartenberg;10;09544;2016-01-01
1663;DESN075;Plauen-Süd;Plauen;;1998-08-06;NA;12.1381;50.4861;SN;Sachsen;städtisches Gebiet;städtisch;Verkehr;Hofer Landstr./Oelsnitzer Str.;;08527;2016-01-01
1664;DESN076;Collmberg;Collm;;1998-10-01;NA;13.0094;51.3038;SN;Sachsen;ländlich abgelegen;ländlich;Hintergrund;Collmberg;;04779;2016-01-01
1665;DESN077;Leipzig Lützner Str.;Leipzig;;2001-01-01;NA;12.3347;51.3359;SN;Sachsen;städtisches Gebiet;städtisch;Verkehr;Lützner Str.;34/36;04177;2016-01-01
1667;DESN079;Niesky;Sproitz;;2003-05-05;NA;14.7497;51.2854;SN;Sachsen;ländlich regional;ländlich;Hintergrund;An der Aue;;02906;2016-01-01
1668;DESN080;Schkeuditz;Schkeuditz;;2003-06-06;NA;12.2341;51.3961;SN;Sachsen;ländlich stadtnah;ländlich;Hintergrund;Leipziger Str.;59;04435;2016-01-01
1669;DESN081;Plauen-DWD;Plauen;;1983-01-01;NA;12.1304;50.4818;SN;Sachsen;vorstädtisches Gebiet;vorstädtisch;Hintergrund;Nach den Drei Bergen;2a;08527;2016-01-01
1670;DESN082;Leipzig-Thekla;Leipzig;;2004-04-01;NA;12.4257;51.3760;SN;Sachsen;vorstädtisches Gebiet;vorstädtisch;Hintergrund;Kiebitzstr.;;04349;2016-01-01
1671;DESN083;Chemnitz-Leipziger Str.;Chemnitz;;2016-04-01;NA;12.9034;50.8457;SN;Sachsen;städtisches Gebiet;städtisch;Verkehr;Leipziger Str.;;09113;2016-01-01
1672;DESN084;Dresden-Bergstr.;Dresden;;2016-05-21;NA;13.7316;51.0263;SN;Sachsen;städtisches Gebiet;städtisch;Verkehr;Bergstr.;;01069;2016-01-01
1679;DESN091;Zwickau-Werdauer Str.;Zwickau;ZwickauW;2011-10-20;NA;12.4866;50.7204;SN;Sachsen;städtisches Gebiet;städtisch;Verkehr;Werdauer Str./Crimmitschauer Str.;;08056;2016-01-01
1680;DESN092;Dresden-Winckelmannstr.;Dresden;DD-Winck;2008-06-20;NA;13.7302;51.0361;SN;Sachsen;städtisches Gebiet;städtisch;Hintergrund;Winckelmannstraße;;01069;2016-01-01
1681;DESN093;Brockau;Netzschkau OT Brockau;Brockau;2011-01-01;NA;12.2111;50.6081;SN;Sachsen;ländlich regional;ländlich;Hintergrund;Elsterberger Straße;4;08491;2016-01-01
1692;DESN104;Chemnitz Hans-Link-Straße;Chemnitz;;2017-01-01;NA;12.9594;50.8552;SN;Sachsen;städtisches Gebiet;städtisch;Hintergrund;Hans-Link-Straße;4;09131;2017-01-01
1719;DEST002;Burg;Burg;;2020-01-22;NA;11.8648;52.2684;ST;Sachsen-Anhalt;vorstädtisches Gebiet;vorstädtisch;Hintergrund;Flickschupark;;39288;2016-01-01
1726;DEST011;Wernigerode/Bahnhof;Wernigerode;;1991-01-01;NA;10.7901;51.8394;ST;Sachsen-Anhalt;städtisches Gebiet;städtisch;Hintergrund;Bahnhofsvorplatz;;38855;2016-01-01
1730;DEST015;Bitterfeld/Wolfen;Greppin;;2016-03-29;NA;12.3029;51.6512;ST;Sachsen-Anhalt;vorstädtisches Gebiet;vorstädtisch;Industrie;Schrebergartenstraße;;06803;2016-01-01
1741;DEST028;Zeitz;Zeitz;;2016-03-01;NA;12.1413;51.0546;ST;Sachsen-Anhalt;städtisches Gebiet;städtisch;Hintergrund;Freiligrathstraße;;06712;2016-01-01
1742;DEST029;Bernburg;Bernburg;;1993-01-28;NA;11.7390;51.8035;ST;Sachsen-Anhalt;vorstädtisches Gebiet;vorstädtisch;Hintergrund;Platz der Jugend;;06406;2016-01-01
1749;DEST039;Brocken;Schierke;;2016-02-19;NA;10.6183;51.7986;ST;Sachsen-Anhalt;ländlich abgelegen;ländlich;Hintergrund;Brockengipfel;;38879;2016-01-01
1751;DEST044;Halberstadt;Halberstadt;;1992-09-23;NA;11.0574;51.8970;ST;Sachsen-Anhalt;städtisches Gebiet;städtisch;Hintergrund;Paulsplan;;38820;2016-01-01
1752;DEST050;Halle/Nord;Halle/Saale;;2016-03-17;NA;11.9791;51.4962;ST;Sachsen-Anhalt;städtisches Gebiet;städtisch;Hintergrund;Schleiermacherstraße;306;06114;2016-01-01
1758;DEST066;Wittenberg/Bahnstrasse;Wittenberg;;2019-12-06;NA;12.6637;51.8709;ST;Sachsen-Anhalt;städtisches Gebiet;städtisch;Hintergrund;Bahnstraße;;06886;2016-01-01
1769;DEST077;Magdeburg/West;Magdeburg;;1994-01-04;NA;11.6115;52.1279;ST;Sachsen-Anhalt;städtisches Gebiet;städtisch;Hintergrund;Hans-Löscher-Straße;39;39108;2016-01-01
1776;DEST089;Zartau/Waldstation;Klötze;Level II 1501;2016-03-09;NA;11.1723;52.5931;ST;Sachsen-Anhalt;ländlich regional;ländlich;Hintergrund;Forsthaus Zartau;;38486;2016-01-01
1777;DEST090;Leuna;Leuna;;2018-11-23;NA;12.0321;51.3214;ST;Sachsen-Anhalt;vorstädtisches Gebiet;vorstädtisch;Industrie;Kreypauer Straße;;06237;2016-01-01
1779;DEST092;Wittenberg/Dessauer Strasse;Lutherstadt Wittenberg;;2018-02-06;NA;12.5983;51.8675;ST;Sachsen-Anhalt;städtisches Gebiet;städtisch;Verkehr;Dessauer Str.;;06886;2016-01-01
1782;DEST095;Aschersleben;Aschersleben;;2000-11-02;NA;11.4495;51.7595;ST;Sachsen-Anhalt;städtisches Gebiet;städtisch;Verkehr;Hinter dem Zoll;30;06449;2016-01-01
1785;DEST098;Unterharz / Friedrichsbrunn;Friedrichsbrunn;;2013-01-24;NA;11.0434;51.6624;ST;Sachsen-Anhalt;ländlich regional;ländlich;Hintergrund;Forsthaus Uhlenstein;;06493;2016-01-01
1789;DEST102;Halle/Paracelsusstr.;Halle/Saale;;2018-04-19;NA;11.9813;51.4948;ST;Sachsen-Anhalt;städtisches Gebiet;städtisch;Verkehr;Paracelsusstr.;;06114;2016-01-01
1790;DEST103;Magdeburg Schleinufer;Magdeburg;;2014-11-19;NA;11.6327;52.1208;ST;Sachsen-Anhalt;städtisches Gebiet;städtisch;Verkehr;Schleinufer;;39104;2016-01-01
1791;DEST104;Domäne Bobbe;Dornbock (Bobbe);;2009-12-17;NA;11.8914;51.8373;ST;Sachsen-Anhalt;ländliches Gebiet;ländlich;Hintergrund;Pappelweg;;06369;2016-01-01
1792;DEST105;Stendal Stadtsee;Stendal;;2016-03-21;NA;11.8503;52.6021;ST;Sachsen-Anhalt;städtisches Gebiet;städtisch;Hintergrund;Geschwister-Scholl-Str.;;39576;2016-01-01
1793;DEST106;Goldene Aue (Roßla);Roßla;;2016-02-29;NA;11.0911;51.4561;ST;Sachsen-Anhalt;ländliches Gebiet;ländlich;Hintergrund;Freibad;;06536;2016-01-01
1795;DEST108;Weißenfels/Am Krug;Weißenfels;;2017-09-12;NA;11.9610;51.1972;ST;Sachsen-Anhalt;städtisches Gebiet;städtisch;Verkehr;Am Krug;;06667;2016-01-01
1798;DEST112;Magdeburg/Guericke-Stra.;Magdeburg;;2016-03-04;NA;11.6319;52.1317;ST;Sachsen-Anhalt;städtisches Gebiet;städtisch;Verkehr;Otto-von-Guericke-Straße;;39104;2016-01-01
1819;DEST133;Halle/Riebeckplatz;Halle/Saale;;2019-06-01;NA;11.9839;51.4758;ST;Sachsen-Anhalt;städtisches Gebiet;städtisch;Verkehr;Merseburger Straße;;06110;2019-08-22
1824;DETH005;Saalfeld;Saalfeld;;1994-01-01;NA;11.3689;50.6512;TH;Thüringen;städtisches Gebiet;städtisch;Hintergrund;Pößnecker Str.;;07318;2016-01-01
1828;DETH009;Gera Friedericistr.;Gera;;1991-04-01;NA;12.0749;50.8779;TH;Thüringen;städtisches Gebiet;städtisch;Hintergrund;Friedericistr.;8;07545;2016-01-01
1830;DETH011;Altenburg Theaterplatz;Altenburg;;1991-12-18;NA;12.4376;50.9878;TH;Thüringen;städtisches Gebiet;städtisch;Hintergrund;Theaterplatz;;04600;2016-01-01
1832;DETH013;Eisenach Werneburgstr.;Eisenach;;1996-04-23;NA;10.3172;50.9783;TH;Thüringen;städtisches Gebiet;städtisch;Hintergrund;Werneburgstr.;;99817;2016-01-01
1837;DETH018;Nordhausen;Nordhausen;;1991-09-01;NA;10.7914;51.4972;TH;Thüringen;städtisches Gebiet;städtisch;Hintergrund;Arnoldstr.;;99734;2016-01-01
1839;DETH020;Erfurt Krämpferstr.;Erfurt;;1991-03-01;NA;11.0379;50.9795;TH;Thüringen;städtisches Gebiet;städtisch;Hintergrund;Krämpferstr.;25;99084;2016-01-01
1845;DETH026;Dreißigacker;Dreißigacker;;1982-01-01;NA;10.3753;50.5618;TH;Thüringen;ländlich regional;ländlich;Hintergrund;Herpfer Str.;;98617;2016-01-01
1846;DETH027;Neuhaus;Neuhaus;;1987-10-01;NA;11.1346;50.5000;TH;Thüringen;ländlich abgelegen;ländlich;Hintergrund;Bornhügel;;98724;2016-01-01
1854;DETH036;Greiz Mollbergstr.;Greiz;;1992-10-22;NA;12.2052;50.6559;TH;Thüringen;städtisches Gebiet;städtisch;Hintergrund;Mollbergstr.;22;07973;2016-01-01
1859;DETH041;Jena Dammstr.;Jena;;1994-02-01;NA;11.5971;50.9335;TH;Thüringen;städtisches Gebiet;städtisch;Hintergrund;Dammstr.;;07749;2016-01-01
1860;DETH042;Possen;Sondershausen;;1996-01-12;NA;10.8672;51.3333;TH;Thüringen;ländlich abgelegen;ländlich;Hintergrund;--;;99706;2016-01-01
1861;DETH043;Erfurt Bergstr.;Erfurt;;1996-06-26;NA;11.0194;50.9849;TH;Thüringen;städtisches Gebiet;städtisch;Verkehr;Bergstraße;;99089;2016-01-01
1879;DETH061;Hummelshain;Hummelshain;;1999-10-07;NA;11.6612;50.7916;TH;Thüringen;ländlich abgelegen;ländlich;Hintergrund;--;;07646;2016-01-01
1890;DETH072;Suhl F.-König-Str;Suhl;;2002-01-01;NA;10.6931;50.6115;TH;Thüringen;städtisches Gebiet;städtisch;Verkehr;F.-König-Str.;;98527;2016-01-01
1899;DETH081;Erfurt Heinrichstr;Erfurt;;2004-08-25;NA;11.0104;50.9723;TH;Thüringen;städtisches Gebiet;städtisch;Verkehr;Heinrichstr.;11;99092;2019-01-01
1901;DETH083;Weimar Steubenstr.;Weimar;;2005-04-13;NA;11.3261;50.9775;TH;Thüringen;städtisches Gebiet;städtisch;Verkehr;Steubenstr.;10;99423;2016-01-01
1909;DETH091;Mühlhausen Wanfrieder Str;Mühlhausen;;2008-04-30;NA;10.4484;51.2052;TH;Thüringen;städtisches Gebiet;städtisch;Verkehr;Wanfrieder Str;149;99974;2016-01-01
1910;DETH093;Weimar Schwanseestr.;Weimar;;2009-01-08;NA;11.3210;50.9822;TH;Thüringen;städtisches Gebiet;städtisch;Hintergrund;Schwanseestr.;17;99423;2016-01-01
1912;DETH095;Mühlhausen Bastmarkt;Mühlhausen;;2009-04-30;NA;10.4510;51.2079;TH;Thüringen;städtisches Gebiet;städtisch;Hintergrund;Bastmarkt;24;99974;2016-01-01
1934;DETH117;Erfurt Bautzener Weg;Erfurt;Erfurt FH;2017-01-01;NA;11.0566;50.9931;TH;Thüringen;vorstädtisches Gebiet;vorstädtisch;Hintergrund;Bautzener Weg;5;99085;2017-01-01
1945;DEUB001;Westerland;Westerland;;1968-01-01;NA;8.3082;54.9250;UB;UBA;ländliches Gebiet;ländlich;Hintergrund;Lornsenweg;9;25980;2016-01-01
1948;DEUB004;Schauinsland;Oberried-Hofsgrund;;1968-01-01;NA;7.9080;47.9133;UB;UBA;ländlich regional;ländlich;Hintergrund;Schauinslandstr.;2;79254;2016-01-01
1949;DEUB005;Waldhof;Lüder-Langenbrügge;;1970-01-01;NA;10.7567;52.8008;UB;UBA;ländliches Gebiet;ländlich;Hintergrund;Waldhof;1;29394;2016-01-01
1972;DEUB028;Zingst;Zingst;;1991-09-01;NA;12.7219;54.4370;UB;UBA;ländliches Gebiet;ländlich;Hintergrund;Landstr.;3;18374;2016-01-01
1973;DEUB029;Schmücke;Gehlberg;;1978-07-01;NA;10.7695;50.6541;UB;UBA;ländliches Gebiet;ländlich;Hintergrund;Schmücke;;98559;2016-01-01
1974;DEUB030;Neuglobsow;Neuglobsow;;1969-01-01;NA;13.0317;53.1413;UB;UBA;ländlich regional;ländlich;Hintergrund;Zur alten Fischerhütte;1;16775;2016-01-01
1990;DEUB046;Forellenbach;Spiegelau;;2000-01-01;NA;13.4206;48.9476;UB;UBA;ländlich abgelegen;ländlich;Hintergrund;;;94518;2016-01-01
2113;DEBB110;Dallgow-Döberitz;Dallgow-Döberitz;;2019-06-19;NA;13.0488;52.5395;BB;Brandenburg;vorstädtisches Gebiet;vorstädtisch;Hintergrund;Am Egelpfuhl;;14624;2019-06-01
9404;DENW397;Düsseldorf-Eller;Düsseldorf;DWER;2019-08-22;NA;6.8175;51.2012;NW;Nordrhein-Westfalen;städtisches Gebiet;städtisch;Hintergrund;Speyerweg;;40229;2020-01-01
9406;DEHE150;Frankfurt-Niedwald;Frankfurt am Main;;2019-04-24;NA;8.5945;50.1135;HE;Hessen;städtisches Gebiet;städtisch;Hintergrund;Am Niedwald;59;65933;2020-01-18
